CircleName,RegionName,DivisionName,OfficeName,Pincode,OfficeType,Delivery,District,StateName,Latitude,Longitude
Andhra Pradesh Circle,Visakhapatnam Region,Visakhapatnam Division,Palavalasa B.O,530052,BO,Delivery,VISAKHAPATANAM,ANDHRA PRADESH,17.89,83.34
Andhra Pradesh Circle,Visakhapatnam Region,Visakhapatnam Division,Ramavaram B.O,531173,BO,Delivery,VISAKHAPATANAM,ANDHRA PRADESH,17.86,83.24
Andhra Pradesh Circle,Visakhapatnam Region,Visakhapatnam Division,Bhandevupuram B.O,531219,BO,Delivery,VISAKHAPATANAM,ANDHRA PRADESH,17.99,83.29
Andhra Pradesh Circle,Visakhapatnam Region,Visakhapatnam Division,Mutcherla B.O,531173,BO,Delivery,VISAKHAPATANAM,ANDHRA PRADESH,17.9,83.29
Andhra Pradesh Circle,Visakhapatnam Region,Visakhapatnam Division,Kanamam B.O,531173,BO,Delivery,VISAKHAPATANAM,ANDHRA PRADESH,17.87,83.26
Andhra Pradesh Circle,Visakhapatnam Region,Anakapalle Division,Golugonda BO,531084,BO,Delivery,VISAKHAPATANAM,ANDHRA PRADESH,NA,NA
Andhra Pradesh Circle,Visakhapatnam Region,Anakapalle Division,Addasaram BO,531114,BO,Delivery,VISAKHAPATANAM,ANDHRA PRADESH,NA,NA
Andhra Pradesh Circle,Visakhapatnam Region,Anakapalle Division,A Kothapalle B.O,531022,BO,Delivery,VISAKHAPATANAM,ANDHRA PRADESH,17.2355680,82.4048420
Andhra Pradesh Circle,Visakhapatnam Region,Anakapalle Division,Anandapuram B.O,531022,BO,Delivery,VISAKHAPATANAM,ANDHRA PRADESH,17.9577770,83.0528640
Andhra Pradesh Circle,Visakhapatnam Region,Anakapalle Division,Dosalapadu BO,531126,BO,Delivery,VISAKHAPATANAM,ANDHRA PRADESH,NA,NA
Andhra Pradesh Circle,Visakhapatnam Region,Anakapalle Division,Nallagonda BO,531084,BO,Delivery,VISAKHAPATANAM,ANDHRA PRADESH,NA,NA
Andhra Pradesh Circle,Visakhapatnam Region,Anakapalle Division,Mushidipalli B.O,531022,BO,Delivery,VISAKHAPATANAM,ANDHRA PRADESH,17.9404120,83.0190040
Andhra Pradesh Circle,Visakhapatnam Region,Anakapalle Division,K.J.Puram B.O,531022,BO,Delivery,VISAKHAPATANAM,ANDHRA PRADESH,17.9241000,83.0643260
Andhra Pradesh Circle,Visakhapatnam Region,Anakapalle Division,Bondam B.O,531149,BO,Delivery,VISAKHAPATANAM,ANDHRA PRADESH,18.3084283,82.9906250
Andhra Pradesh Circle,Visakhapatnam Region,Anakapalle Division,Burja B.O,531149,BO,Delivery,VISAKHAPATANAM,ANDHRA PRADESH,18.2164592,82.9045210
Andhra Pradesh Circle,Visakhapatnam Region,Anakapalle Division,Chompi B.O,531149,BO,Delivery,VISAKHAPATANAM,ANDHRA PRADESH,18.3155716,82.8686933
Andhra Pradesh Circle,Visakhapatnam Region,Anakapalle Division,Koruvada B.O,531022,BO,Delivery,VISAKHAPATANAM,ANDHRA PRADESH,17.9317460,83.0803840
Andhra Pradesh Circle,Visakhapatnam Region,Anakapalle Division,Rama Yogi Agraharam B.O,531022,BO,Delivery,VISAKHAPATANAM,ANDHRA PRADESH,17.9318790,83.0590010
Andhra Pradesh Circle,Visakhapatnam Region,Anakapalle Division,Varada B.O,531022,BO,Delivery,VISAKHAPATANAM,ANDHRA PRADESH,17.9361250,83.0399890
Andhra Pradesh Circle,Visakhapatnam Region,Anakapalle Division,Gavarapalem B.O,531022,BO,Delivery,VISAKHAPATANAM,ANDHRA PRADESH,17.9165710,83.0788050
Andhra Pradesh Circle,Visakhapatnam Region,Anakapalle Division,Baski B.O,531149,BO,Delivery,VISAKHAPATANAM,ANDHRA PRADESH,17.6868159,83.2184815
Andhra Pradesh Circle,Visakhapatnam Region,Anakapalle Division,Chinalabudu B.O,531149,BO,Delivery,VISAKHAPATANAM,ANDHRA PRADESH,18.3336353,82.9156240
Andhra Pradesh Circle,Visakhapatnam Region,Anakapalle Division,Gannela B.O,531149,BO,Delivery,VISAKHAPATANAM,ANDHRA PRADESH,18.2723920,82.7178185
Andhra Pradesh Circle,Visakhapatnam Region,Visakhapatnam Division,Sowbhagya Rayapuram B.O,531173,BO,Delivery,VISAKHAPATANAM,ANDHRA PRADESH,17.79,83.17
Andhra Pradesh Circle,Visakhapatnam Region,Vizianagaram Division,D TALLAVALASA,535005,BO,Delivery,VISAKHAPATANAM,ANDHRA PRADESH,18.020106,83.404737
Andhra Pradesh Circle,Visakhapatnam Region,Anakapalle Division,Bosubeda B.O,531149,BO,Delivery,VISAKHAPATANAM,ANDHRA PRADESH,18.2943239,82.9187961
Andhra Pradesh Circle,Visakhapatnam Region,Visakhapatnam Division,Desapatrunipalem B.O,531173,BO,Delivery,VISAKHAPATANAM,ANDHRA PRADESH,17.86,83.19
Andhra Pradesh Circle,Visakhapatnam Region,Kakinada Division,Paltheru B.O,533401,BO,Delivery,VISAKHAPATANAM,ANDHRA PRADESH,17.3155719,82.5415720
Andhra Pradesh Circle,Visakhapatnam Region,Anakapalle Division,Pakalapadu B.O,531118,BO,Delivery,VISAKHAPATANAM,ANDHRA PRADESH,17.7090284,82.5749165
Andhra Pradesh Circle,Visakhapatnam Region,Visakhapatnam Division,Pinagadi B.O,531173,BO,Delivery,VISAKHAPATANAM,ANDHRA PRADESH,17.79,83.13
Andhra Pradesh Circle,Visakhapatnam Region,Anakapalle Division,Annavaram B.O,531118,BO,Delivery,VISAKHAPATANAM,ANDHRA PRADESH,17.6086160,82.6322080
Andhra Pradesh Circle,Visakhapatnam Region,Anakapalle Division,Iragi B.O,531149,BO,Delivery,VISAKHAPATANAM,ANDHRA PRADESH,18.3623180,83.0508040
Andhra Pradesh Circle,Visakhapatnam Region,Anakapalle Division,Pedabaludu B.O,531149,BO,Delivery,VISAKHAPATANAM,ANDHRA PRADESH,18.3221516,82.8826200
Andhra Pradesh Circle,Visakhapatnam Region,Anakapalle Division,Sunkarimetta B.O,531149,BO,Delivery,VISAKHAPATANAM,ANDHRA PRADESH,18.2748691,82.9673330
Andhra Pradesh Circle,Visakhapatnam Region,Anakapalle Division,Araku B.O,531151,BO,Delivery,VISAKHAPATANAM,ANDHRA PRADESH,18.3361632,82.8454592
Andhra Pradesh Circle,Visakhapatnam Region,Anakapalle Division,Arma B.O,531151,BO,Delivery,VISAKHAPATANAM,ANDHRA PRADESH,18.3294460,82.8407340
Andhra Pradesh Circle,Visakhapatnam Region,Anakapalle Division,Gorapur B.O,531151,BO,Delivery,VISAKHAPATANAM,ANDHRA PRADESH,18.3456520,82.8698090
Andhra Pradesh Circle,Visakhapatnam Region,Anakapalle Division,Guntagannela B.O,531151,BO,Delivery,VISAKHAPATANAM,ANDHRA PRADESH,18.2723920,82.7178185
Andhra Pradesh Circle,Visakhapatnam Region,Anakapalle Division,Kollaput B.O,531151,BO,Delivery,VISAKHAPATANAM,ANDHRA PRADESH,18.4063990,82.8583980
Andhra Pradesh Circle,Visakhapatnam Region,Anakapalle Division,Pattam B.O,531151,BO,Delivery,VISAKHAPATANAM,ANDHRA PRADESH,18.1636400,82.8648750
Andhra Pradesh Circle,Visakhapatnam Region,Anakapalle Division,Rangaseela B.O,531151,BO,Delivery,VISAKHAPATANAM,ANDHRA PRADESH,18.2088183,82.7785600
Andhra Pradesh Circle,Visakhapatnam Region,Anakapalle Division,Pudimadaka B.O,531011,BO,Delivery,VISAKHAPATANAM,ANDHRA PRADESH,17.4926196,83.0023515
Andhra Pradesh Circle,Visakhapatnam Region,Anakapalle Division,Tanthadi B.O,531011,BO,Delivery,VISAKHAPATANAM,ANDHRA PRADESH,17.5302212,83.0593314
Andhra Pradesh Circle,Visakhapatnam Region,Anakapalle Division,Janguluru B.O,531011,BO,Delivery,VISAKHAPATANAM,ANDHRA PRADESH,17.5473770,82.9965190
Andhra Pradesh Circle,Visakhapatnam Region,Anakapalle Division,Adavi Agraharam B.O,531036,BO,Delivery,VISAKHAPATANAM,ANDHRA PRADESH,16.5236810,80.6392470
Andhra Pradesh Circle,Visakhapatnam Region,Anakapalle Division,R Sivarampuram B.O,531036,BO,Delivery,VISAKHAPATANAM,ANDHRA PRADESH,17.7023610,82.8667540
Andhra Pradesh Circle,Visakhapatnam Region,Anakapalle Division,Kannampalem B.O,531036,BO,Delivery,VISAKHAPATANAM,ANDHRA PRADESH,17.9129230,82.7399870
Andhra Pradesh Circle,Visakhapatnam Region,Anakapalle Division,Nagayyapeta B.O,531030,BO,Delivery,VISAKHAPATANAM,ANDHRA PRADESH,17.9754120,82.9978470
Andhra Pradesh Circle,Visakhapatnam Region,Anakapalle Division,Nagulapalli B.O,531002,BO,Delivery,VISAKHAPATANAM,ANDHRA PRADESH,17.6668097,82.9997271
Andhra Pradesh Circle,Visakhapatnam Region,Anakapalle Division,Marepalli B.O,531030,BO,Delivery,VISAKHAPATANAM,ANDHRA PRADESH,17.0287280,82.7584890
Andhra Pradesh Circle,Visakhapatnam Region,Anakapalle Division,Valabu B.O,531030,BO,Delivery,VISAKHAPATANAM,ANDHRA PRADESH,17.9939670,82.8694460
Andhra Pradesh Circle,Visakhapatnam Region,Anakapalle Division,Murakada B.O,531061,BO,Delivery,VISAKHAPATANAM,ANDHRA PRADESH,17.4734300,82.8582000
Andhra Pradesh Circle,Visakhapatnam Region,Anakapalle Division,Raja Koduru B.O,531061,BO,Delivery,VISAKHAPATANAM,ANDHRA PRADESH,17.5044560,82.9158780
Andhra Pradesh Circle,Visakhapatnam Region,Anakapalle Division,Thadi B.O,531019,BO,Delivery,VISAKHAPATANAM,ANDHRA PRADESH,17.6480550,83.0521770
Andhra Pradesh Circle,Visakhapatnam Region,Anakapalle Division,Kinthada B.O,531034,BO,Delivery,VISAKHAPATANAM,ANDHRA PRADESH,17.8717201,83.0548255
Andhra Pradesh Circle,Visakhapatnam Region,Anakapalle Division,Bayyavaram B.O,531031,BO,Delivery,VISAKHAPATANAM,ANDHRA PRADESH,17.6646111,82.9397948
Andhra Pradesh Circle,Visakhapatnam Region,Visakhapatnam Division,Tatituru B.O,531162,BO,Delivery,VISAKHAPATANAM,ANDHRA PRADESH,17.9324810,83.4023060
Andhra Pradesh Circle,Visakhapatnam Region,Visakhapatnam Division,MULAKUDDU,531162,BO,Delivery,VISAKHAPATANAM,ANDHRA PRADESH,17.9110990,83.4456800
Andhra Pradesh Circle,Visakhapatnam Region,Visakhapatnam Division,BODAMETTAPALEM,531162,BO,Delivery,VISAKHAPATANAM,ANDHRA PRADESH,17.9010860,83.4109830
Andhra Pradesh Circle,Visakhapatnam Region,Visakhapatnam Division,Narava B.O,530027,BO,Delivery,VISAKHAPATANAM,ANDHRA PRADESH,17.7483420,83.2151500
Andhra Pradesh Circle,Visakhapatnam Region,Visakhapatnam Division,Maddi B.O,531219,BO,Delivery,VISAKHAPATANAM,ANDHRA PRADESH,17.9817370,83.3231570
Andhra Pradesh Circle,Visakhapatnam Region,Visakhapatnam Division,Padmanabham B.O,531219,BO,Delivery,VISAKHAPATANAM,ANDHRA PRADESH,17.9914430,83.3375240
Andhra Pradesh Circle,Visakhapatnam Region,Anakapalle Division,Pedakodapalli B.O,531077,BO,Delivery,VISAKHAPATANAM,ANDHRA PRADESH,18.1502752,82.5902555
Andhra Pradesh Circle,Visakhapatnam Region,Anakapalle Division,Santhari B.O,531077,BO,Delivery,VISAKHAPATANAM,ANDHRA PRADESH,18.1676766,82.7881916
Andhra Pradesh Circle,Visakhapatnam Region,Anakapalle Division,Sobhakota B.O,531077,BO,Delivery,VISAKHAPATANAM,ANDHRA PRADESH,18.1663916,82.6662250
Andhra Pradesh Circle,Visakhapatnam Region,Anakapalle Division,Durgam B.O,531077,BO,Delivery,VISAKHAPATANAM,ANDHRA PRADESH,18.0882740,82.8261340
Andhra Pradesh Circle,Visakhapatnam Region,Anakapalle Division,Mettujoru B.O,531077,BO,Delivery,VISAKHAPATANAM,ANDHRA PRADESH,18.7588900,84.5088040
Andhra Pradesh Circle,Visakhapatnam Region,Anakapalle Division,Antada B.O,531084,BO,Delivery,VISAKHAPATANAM,ANDHRA PRADESH,17.7046266,82.3417500
Andhra Pradesh Circle,Visakhapatnam Region,Anakapalle Division,Bangarampeta B.O,531084,BO,Delivery,VISAKHAPATANAM,ANDHRA PRADESH,17.6707383,82.3812450
Andhra Pradesh Circle,Visakhapatnam Region,Anakapalle Division,Chittempadu B.O,531084,BO,Delivery,VISAKHAPATANAM,ANDHRA PRADESH,17.7098383,82.5009516
Andhra Pradesh Circle,Visakhapatnam Region,Anakapalle Division,Chodyam. B.O,531084,BO,Delivery,VISAKHAPATANAM,ANDHRA PRADESH,17.6644033,82.4306266
Andhra Pradesh Circle,Visakhapatnam Region,Anakapalle Division,Revallu B.O,531087,BO,Delivery,VISAKHAPATANAM,ANDHRA PRADESH,17.6240824,82.1825300
Andhra Pradesh Circle,Visakhapatnam Region,Anakapalle Division,Gabbada B.O,531118,BO,Delivery,VISAKHAPATANAM,ANDHRA PRADESH,17.7669636,82.5360711
Andhra Pradesh Circle,Visakhapatnam Region,Anakapalle Division,J P Agraharam B.O,531118,BO,Delivery,VISAKHAPATANAM,ANDHRA PRADESH,17.6583051,82.6635037
Andhra Pradesh Circle,Visakhapatnam Region,Anakapalle Division,K Yellavaram B.O,531118,BO,Delivery,VISAKHAPATANAM,ANDHRA PRADESH,17.6604561,82.5587011
Andhra Pradesh Circle,Visakhapatnam Region,Anakapalle Division,Kitumula B.O,531118,BO,Delivery,VISAKHAPATANAM,ANDHRA PRADESH,17.8411305,82.5253896
Andhra Pradesh Circle,Visakhapatnam Region,Anakapalle Division,Jammadevipeta B.O,531027,BO,Delivery,VISAKHAPATANAM,ANDHRA PRADESH,17.8665252,82.7612321
Andhra Pradesh Circle,Visakhapatnam Region,Anakapalle Division,Kinthalli B.O,531027,BO,Delivery,VISAKHAPATANAM,ANDHRA PRADESH,17.8564399,82.7438010
Andhra Pradesh Circle,Visakhapatnam Region,Anakapalle Division,M Koduru B.O,531027,BO,Delivery,VISAKHAPATANAM,ANDHRA PRADESH,17.9115469,82.7896386
Andhra Pradesh Circle,Visakhapatnam Region,Anakapalle Division,Sagaram B.O,531027,BO,Delivery,VISAKHAPATANAM,ANDHRA PRADESH,17.8722700,82.7725410
Andhra Pradesh Circle,Visakhapatnam Region,Anakapalle Division,Sankaram B.O,531027,BO,Delivery,VISAKHAPATANAM,ANDHRA PRADESH,17.9368324,82.7366008
Andhra Pradesh Circle,Visakhapatnam Region,Anakapalle Division,Bheemaboinapalem B.O,531113,BO,Delivery,VISAKHAPATANAM,ANDHRA PRADESH,17.6321750,82.7664470
Andhra Pradesh Circle,Visakhapatnam Region,Anakapalle Division,Burugupalem B.O,531113,BO,Delivery,VISAKHAPATANAM,ANDHRA PRADESH,17.6794119,82.7168200
Andhra Pradesh Circle,Visakhapatnam Region,Anakapalle Division,Giduturu B.O,531113,BO,Delivery,VISAKHAPATANAM,ANDHRA PRADESH,17.6020806,82.6617948
Andhra Pradesh Circle,Visakhapatnam Region,Anakapalle Division,Koduru B.O,531113,BO,Delivery,VISAKHAPATANAM,ANDHRA PRADESH,17.5935201,82.7455353
Andhra Pradesh Circle,Visakhapatnam Region,Anakapalle Division,Tutipala B.O,531113,BO,Delivery,VISAKHAPATANAM,ANDHRA PRADESH,17.6914903,82.7310033
Andhra Pradesh Circle,Visakhapatnam Region,Anakapalle Division,Vajragada B.O,531113,BO,Delivery,VISAKHAPATANAM,ANDHRA PRADESH,17.6238290,82.6510450
Andhra Pradesh Circle,Visakhapatnam Region,Visakhapatnam Division,Potnuru B.O,531219,BO,Delivery,VISAKHAPATANAM,ANDHRA PRADESH,18.0203750,83.3214860
Andhra Pradesh Circle,Visakhapatnam Region,Visakhapatnam Division,Sirlapalem B.O,531219,BO,Delivery,VISAKHAPATANAM,ANDHRA PRADESH,17.9639010,83.3081170
Andhra Pradesh Circle,Visakhapatnam Region,Visakhapatnam Division,Durganagar B.O,530029,BO,Delivery,VISAKHAPATANAM,ANDHRA PRADESH,17.7640770,83.2179350
Andhra Pradesh Circle,Visakhapatnam Region,Visakhapatnam Division,Chintalaagaraharam B.O,530047,BO,Delivery,VISAKHAPATANAM,ANDHRA PRADESH,17.7848330,83.1997300
Andhra Pradesh Circle,Visakhapatnam Region,Visakhapatnam Division,Porlupalem B.O,530047,BO,Delivery,VISAKHAPATANAM,ANDHRA PRADESH,17.7736880,83.1952410
Andhra Pradesh Circle,Visakhapatnam Region,Vizianagaram Division,B.Tallavalasa B.O,535005,BO,Delivery,VISAKHAPATANAM,ANDHRA PRADESH,17.9037630,83.4029740
Andhra Pradesh Circle,Visakhapatnam Region,Vizianagaram Division,Bhandevpuram B.O,535250,BO,Delivery,VISAKHAPATANAM,ANDHRA PRADESH,17.9970530,83.2970860
Andhra Pradesh Circle,Visakhapatnam Region,Visakhapatnam Division,Sagar Nagar B.O,530045,BO,Delivery,VISAKHAPATANAM,ANDHRA PRADESH,17.7651570,83.3562310
Andhra Pradesh Circle,Visakhapatnam Region,Visakhapatnam Division,Gayatri Engg College B.O,530048,BO,Delivery,VISAKHAPATANAM,ANDHRA PRADESH,17.8214600,83.3411130
Andhra Pradesh Circle,Visakhapatnam Region,Visakhapatnam Division,Tarluvada B.O,530052,BO,Delivery,VISAKHAPATANAM,ANDHRA PRADESH,17.9008520,83.3174760
Andhra Pradesh Circle,Visakhapatnam Region,Visakhapatnam Division,Jaggayyapalem B.O,530012,BO,Delivery,VISAKHAPATANAM,ANDHRA PRADESH,17.7383560,83.3015400
Andhra Pradesh Circle,Visakhapatnam Region,Visakhapatnam Division,Kapuluppada B.O,531163,BO,Delivery,VISAKHAPATANAM,ANDHRA PRADESH,17.8353450,83.3842810
Andhra Pradesh Circle,Visakhapatnam Region,Visakhapatnam Division,Vellanki B.O,531163,BO,Delivery,VISAKHAPATANAM,ANDHRA PRADESH,17.8814400,83.3925640
Andhra Pradesh Circle,Visakhapatnam Region,Visakhapatnam Division,Sangivalasa B.O,531162,BO,Delivery,VISAKHAPATANAM,ANDHRA PRADESH,17.9232370,83.4208330
Andhra Pradesh Circle,Visakhapatnam Region,Visakhapatnam Division,Chippada B.O,531162,BO,Delivery,VISAKHAPATANAM,ANDHRA PRADESH,17.9332100,83.4566860
Andhra Pradesh Circle,Visakhapatnam Region,Visakhapatnam Division,Dakamarri B.O,531162,BO,Delivery,VISAKHAPATANAM,ANDHRA PRADESH,17.9884500,83.4009710
Andhra Pradesh Circle,Visakhapatnam Region,Anakapalle Division,Chammachinta B.O,531115,BO,Delivery,VISAKHAPATANAM,ANDHRA PRADESH,17.5933800,82.4671520
Andhra Pradesh Circle,Visakhapatnam Region,Anakapalle Division,Golugondapeta B.O,531115,BO,Delivery,VISAKHAPATANAM,ANDHRA PRADESH,17.5110675,82.4441624
Andhra Pradesh Circle,Visakhapatnam Region,Anakapalle Division,Gunupudi B.O,531115,BO,Delivery,VISAKHAPATANAM,ANDHRA PRADESH,17.4999611,82.4530154
Andhra Pradesh Circle,Visakhapatnam Region,Anakapalle Division,M B Patnam B.O,531115,BO,Delivery,VISAKHAPATANAM,ANDHRA PRADESH,17.5119880,82.4907521
Andhra Pradesh Circle,Visakhapatnam Region,Anakapalle Division,P Kotha Gudem B.O,531115,BO,Delivery,VISAKHAPATANAM,ANDHRA PRADESH,17.4999611,82.4530154
Andhra Pradesh Circle,Visakhapatnam Region,Anakapalle Division,Pedajaggampeta B.O,531115,BO,Delivery,VISAKHAPATANAM,ANDHRA PRADESH,17.4721781,82.4309186
Andhra Pradesh Circle,Visakhapatnam Region,Anakapalle Division,Sarugudu B.O,531115,BO,Delivery,VISAKHAPATANAM,ANDHRA PRADESH,17.5379880,82.4021320
Andhra Pradesh Circle,Visakhapatnam Region,Anakapalle Division,Srungavaram B.O,531115,BO,Delivery,VISAKHAPATANAM,ANDHRA PRADESH,17.5221934,82.5141070
Andhra Pradesh Circle,Visakhapatnam Region,Anakapalle Division,Minimuluru B.O,531024,BO,Delivery,VISAKHAPATANAM,ANDHRA PRADESH,18.0356406,82.7007094
Andhra Pradesh Circle,Visakhapatnam Region,Anakapalle Division,Vanugupalli B.O,531024,BO,Delivery,VISAKHAPATANAM,ANDHRA PRADESH,18.0285611,82.6809199
Andhra Pradesh Circle,Visakhapatnam Region,Anakapalle Division,Modapalli B.O,531024,BO,Delivery,VISAKHAPATANAM,ANDHRA PRADESH,18.7445820,79.9278960
Andhra Pradesh Circle,Visakhapatnam Region,Anakapalle Division,Aduguluputtu B.O,531040,BO,Delivery,VISAKHAPATANAM,ANDHRA PRADESH,18.2950436,82.5611472
Andhra Pradesh Circle,Visakhapatnam Region,Anakapalle Division,Makavaram B.O,531040,BO,Delivery,VISAKHAPATANAM,ANDHRA PRADESH,18.4625066,82.5109000
Andhra Pradesh Circle,Visakhapatnam Region,Anakapalle Division,Panasaput B.O,531040,BO,Delivery,VISAKHAPATANAM,ANDHRA PRADESH,18.4101300,82.5161216
Andhra Pradesh Circle,Visakhapatnam Region,Anakapalle Division,Poipalli B.O,531040,BO,Delivery,VISAKHAPATANAM,ANDHRA PRADESH,18.9674870,82.4438010
Andhra Pradesh Circle,Visakhapatnam Region,Anakapalle Division,Barada B.O,531040,BO,Delivery,VISAKHAPATANAM,ANDHRA PRADESH,18.4117260,82.4749530
Andhra Pradesh Circle,Visakhapatnam Region,Anakapalle Division,Dodiput B.O,531040,BO,Delivery,VISAKHAPATANAM,ANDHRA PRADESH,18.3752140,82.4586210
Andhra Pradesh Circle,Visakhapatnam Region,Anakapalle Division,Chinapachila B.O,531025,BO,Delivery,VISAKHAPATANAM,ANDHRA PRADESH,17.8096600,82.7854966
Andhra Pradesh Circle,Visakhapatnam Region,Anakapalle Division,Gompa B.O,531025,BO,Delivery,VISAKHAPATANAM,ANDHRA PRADESH,17.7447766,82.8143333
Andhra Pradesh Circle,Visakhapatnam Region,Anakapalle Division,Devarapalli B.O,531133,BO,Delivery,VISAKHAPATANAM,ANDHRA PRADESH,17.8349368,82.2545547
Andhra Pradesh Circle,Visakhapatnam Region,Anakapalle Division,R V NAGAR B.O,531133,BO,Delivery,VISAKHAPATANAM,ANDHRA PRADESH,17.8743540,82.2307639
Andhra Pradesh Circle,Visakhapatnam Region,Anakapalle Division,Rintada B.O,531133,BO,Delivery,VISAKHAPATANAM,ANDHRA PRADESH,17.8590570,82.2848060
Andhra Pradesh Circle,Visakhapatnam Region,Anakapalle Division,Vijayaramarajupeta B.O,531026,BO,Delivery,VISAKHAPATANAM,ANDHRA PRADESH,17.8520526,82.8815075
Andhra Pradesh Circle,Visakhapatnam Region,Anakapalle Division,D Suravaram B.O,531026,BO,Delivery,VISAKHAPATANAM,ANDHRA PRADESH,17.8501380,82.8829050
Andhra Pradesh Circle,Visakhapatnam Region,Anakapalle Division,Mangalapuram B.O,531026,BO,Delivery,VISAKHAPATANAM,ANDHRA PRADESH,17.8381640,82.8775220
Andhra Pradesh Circle,Visakhapatnam Region,Anakapalle Division,Polipalli B.O,531026,BO,Delivery,VISAKHAPATANAM,ANDHRA PRADESH,17.9674870,83.4438010
Andhra Pradesh Circle,Visakhapatnam Region,Anakapalle Division,Chittayyapalem B.O,531026,BO,Delivery,VISAKHAPATANAM,ANDHRA PRADESH,17.8557970,83.2038290
Andhra Pradesh Circle,Visakhapatnam Region,Anakapalle Division,Amalapuram B.O,531117,BO,Delivery,VISAKHAPATANAM,ANDHRA PRADESH,17.5847094,82.5909874
Andhra Pradesh Circle,Visakhapatnam Region,Anakapalle Division,Bodapalem B.O,531117,BO,Delivery,VISAKHAPATANAM,ANDHRA PRADESH,17.5453808,82.6051230
Andhra Pradesh Circle,Visakhapatnam Region,Anakapalle Division,Cherlopalem B.O,531117,BO,Delivery,VISAKHAPATANAM,ANDHRA PRADESH,17.5533333,82.5875376
Andhra Pradesh Circle,Visakhapatnam Region,Anakapalle Division,Kothaballuguda B.O,531149,BO,Delivery,VISAKHAPATANAM,ANDHRA PRADESH,18.2715590,82.9270170
Andhra Pradesh Circle,Visakhapatnam Region,Anakapalle Division,Madala B.O,531149,BO,Delivery,VISAKHAPATANAM,ANDHRA PRADESH,18.3530040,82.8800870
Andhra Pradesh Circle,Visakhapatnam Region,Anakapalle Division,Gasaba B.O,531151,BO,Delivery,VISAKHAPATANAM,ANDHRA PRADESH,18.4180306,82.8378635
Andhra Pradesh Circle,Visakhapatnam Region,Anakapalle Division,Korra B.O,531151,BO,Delivery,VISAKHAPATANAM,ANDHRA PRADESH,18.2160066,82.8135433
Andhra Pradesh Circle,Visakhapatnam Region,Anakapalle Division,Korrai B.O,531151,BO,Delivery,VISAKHAPATANAM,ANDHRA PRADESH,18.3788550,82.8590700
Andhra Pradesh Circle,Visakhapatnam Region,Anakapalle Division,Layaganda B.O,531151,BO,Delivery,VISAKHAPATANAM,ANDHRA PRADESH,18.3645110,82.8802160
Andhra Pradesh Circle,Visakhapatnam Region,Anakapalle Division,Chodapalle B.O,531011,BO,Delivery,VISAKHAPATANAM,ANDHRA PRADESH,17.5730405,82.9807197
Andhra Pradesh Circle,Visakhapatnam Region,Anakapalle Division,Dosuru B.O,531011,BO,Delivery,VISAKHAPATANAM,ANDHRA PRADESH,17.5482873,83.0344892
Andhra Pradesh Circle,Visakhapatnam Region,Anakapalle Division,Arjunagiri B.O,531036,BO,Delivery,VISAKHAPATANAM,ANDHRA PRADESH,17.9108673,82.9351917
Andhra Pradesh Circle,Visakhapatnam Region,Anakapalle Division,Chakipalle B.O,531036,BO,Delivery,VISAKHAPATANAM,ANDHRA PRADESH,17.7691393,82.9307578
Andhra Pradesh Circle,Visakhapatnam Region,Anakapalle Division,Damunapalle B.O,531036,BO,Delivery,VISAKHAPATANAM,ANDHRA PRADESH,17.8448370,82.8990510
Andhra Pradesh Circle,Visakhapatnam Region,Anakapalle Division,Gogada Kothapalle B.O,531036,BO,Delivery,VISAKHAPATANAM,ANDHRA PRADESH,17.9056290,82.9000670
Andhra Pradesh Circle,Visakhapatnam Region,Anakapalle Division,Gowripatnam B.O,531036,BO,Delivery,VISAKHAPATANAM,ANDHRA PRADESH,17.8180410,82.9124670
Andhra Pradesh Circle,Visakhapatnam Region,Anakapalle Division,Jannavaram B.O,531036,BO,Delivery,VISAKHAPATANAM,ANDHRA PRADESH,17.7625280,82.9039480
Andhra Pradesh Circle,Visakhapatnam Region,Anakapalle Division,Pakeersahebpeta B.O,531036,BO,Delivery,VISAKHAPATANAM,ANDHRA PRADESH,17.7812450,82.9205130
Andhra Pradesh Circle,Visakhapatnam Region,Anakapalle Division,Pedagogada B.O,531036,BO,Delivery,VISAKHAPATANAM,ANDHRA PRADESH,17.8912200,82.9052350
Andhra Pradesh Circle,Visakhapatnam Region,Anakapalle Division,Rajam B.O,531036,BO,Delivery,VISAKHAPATANAM,ANDHRA PRADESH,17.7369420,82.8930470
Andhra Pradesh Circle,Visakhapatnam Region,Anakapalle Division,Pedakota B.O,531030,BO,Delivery,VISAKHAPATANAM,ANDHRA PRADESH,18.0623390,82.9432580
Andhra Pradesh Circle,Visakhapatnam Region,Anakapalle Division,Pedanandipalle Agraharam B.O,531030,BO,Delivery,VISAKHAPATANAM,ANDHRA PRADESH,17.9241340,82.9845430
Andhra Pradesh Circle,Visakhapatnam Region,Anakapalle Division,Chintalapudi B.O,531030,BO,Delivery,VISAKHAPATANAM,ANDHRA PRADESH,18.0506770,83.0106230
Andhra Pradesh Circle,Visakhapatnam Region,Anakapalle Division,Tamarabba B.O,531030,BO,Delivery,VISAKHAPATANAM,ANDHRA PRADESH,17.6542140,82.4265470
Andhra Pradesh Circle,Visakhapatnam Region,Anakapalle Division,Gokivada B.O,531061,BO,Delivery,VISAKHAPATANAM,ANDHRA PRADESH,17.5514350,82.9093550
Andhra Pradesh Circle,Visakhapatnam Region,Anakapalle Division,Govindapalem B.O,531061,BO,Delivery,VISAKHAPATANAM,ANDHRA PRADESH,17.4556630,82.9171660
Andhra Pradesh Circle,Visakhapatnam Region,Anakapalle Division,Haripuram B.O,531061,BO,Delivery,VISAKHAPATANAM,ANDHRA PRADESH,17.5073210,82.8962230
Andhra Pradesh Circle,Visakhapatnam Region,Anakapalle Division,Kalavalapalle B.O,531061,BO,Delivery,VISAKHAPATANAM,ANDHRA PRADESH,17.4794750,82.9130030
Andhra Pradesh Circle,Visakhapatnam Region,Anakapalle Division,Kothuru B.O,531061,BO,Delivery,VISAKHAPATANAM,ANDHRA PRADESH,17.5261460,82.9018880
Andhra Pradesh Circle,Visakhapatnam Region,Anakapalle Division,Muddurthi B.O,531023,BO,Delivery,VISAKHAPATANAM,ANDHRA PRADESH,17.7713550,82.9675480
Andhra Pradesh Circle,Visakhapatnam Region,Anakapalle Division,Pedamushidivada B.O,531019,BO,Delivery,VISAKHAPATANAM,ANDHRA PRADESH,17.7181380,83.1005860
Andhra Pradesh Circle,Visakhapatnam Region,Anakapalle Division,Chowduvada B.O,531034,BO,Delivery,VISAKHAPATANAM,ANDHRA PRADESH,17.8389947,83.0010731
Andhra Pradesh Circle,Visakhapatnam Region,Anakapalle Division,Gondupalem B.O,531034,BO,Delivery,VISAKHAPATANAM,ANDHRA PRADESH,17.8652258,83.0274552
Andhra Pradesh Circle,Visakhapatnam Region,Anakapalle Division,K Santhaplem B.O,531034,BO,Delivery,VISAKHAPATANAM,ANDHRA PRADESH,17.8732391,83.0817509
Andhra Pradesh Circle,Visakhapatnam Region,Anakapalle Division,Singannadorapalem B.O,531034,BO,Delivery,VISAKHAPATANAM,ANDHRA PRADESH,17.8967272,83.0512946
Andhra Pradesh Circle,Visakhapatnam Region,Anakapalle Division,Iti Araku B.O,531149,BO,Delivery,VISAKHAPATANAM,ANDHRA PRADESH,18.3273490,82.8775220
Andhra Pradesh Circle,Visakhapatnam Region,Anakapalle Division,Lother B.O,531149,BO,Delivery,VISAKHAPATANAM,ANDHRA PRADESH,18.3382600,83.0535890
Andhra Pradesh Circle,Visakhapatnam Region,Anakapalle Division,Madagada B.O,531149,BO,Delivery,VISAKHAPATANAM,ANDHRA PRADESH,18.2747989,82.9122565
Andhra Pradesh Circle,Visakhapatnam Region,Anakapalle Division,Siragam B.O,531149,BO,Delivery,VISAKHAPATANAM,ANDHRA PRADESH,18.2865066,82.8528416
Andhra Pradesh Circle,Visakhapatnam Region,Anakapalle Division,Guntaseema B.O,531151,BO,Delivery,VISAKHAPATANAM,ANDHRA PRADESH,18.2688840,82.6860233
Andhra Pradesh Circle,Visakhapatnam Region,Anakapalle Division,Kandrum B.O,531151,BO,Delivery,VISAKHAPATANAM,ANDHRA PRADESH,18.3071133,82.7594583
Andhra Pradesh Circle,Visakhapatnam Region,Anakapalle Division,Kithalangi B.O,531151,BO,Delivery,VISAKHAPATANAM,ANDHRA PRADESH,18.2527150,82.8252033
Andhra Pradesh Circle,Visakhapatnam Region,Anakapalle Division,Rangelisingi B.O,531151,BO,Delivery,VISAKHAPATANAM,ANDHRA PRADESH,18.2880554,82.6654964
Andhra Pradesh Circle,Visakhapatnam Region,Anakapalle Division,Sagara B.O,531151,BO,Delivery,VISAKHAPATANAM,ANDHRA PRADESH,18.3583295,82.8169365
Andhra Pradesh Circle,Visakhapatnam Region,Anakapalle Division,Tutangi B.O,531151,BO,Delivery,VISAKHAPATANAM,ANDHRA PRADESH,18.2434266,82.6802383
Andhra Pradesh Circle,Visakhapatnam Region,Anakapalle Division,Dibbapalem SEZ R.H Colony BO,531011,BO,Delivery,VISAKHAPATANAM,ANDHRA PRADESH,17.5108676,82.9716503
Andhra Pradesh Circle,Visakhapatnam Region,Anakapalle Division,Dumbriguda B.O,531151,BO,Delivery,VISAKHAPATANAM,ANDHRA PRADESH,18.2866000,82.7911583
Andhra Pradesh Circle,Visakhapatnam Region,Anakapalle Division,Gattum B.O,531151,BO,Delivery,VISAKHAPATANAM,ANDHRA PRADESH,18.1812433,82.8394800
Andhra Pradesh Circle,Visakhapatnam Region,Anakapalle Division,Kinchumanda B.O,531151,BO,Delivery,VISAKHAPATANAM,ANDHRA PRADESH,18.2433933,82.7959966
Andhra Pradesh Circle,Visakhapatnam Region,Anakapalle Division,Sovva B.O,531151,BO,Delivery,VISAKHAPATANAM,ANDHRA PRADESH,18.4242339,82.8028203
Andhra Pradesh Circle,Visakhapatnam Region,Anakapalle Division,Dupputuru B.O,531011,BO,Delivery,VISAKHAPATANAM,ANDHRA PRADESH,17.5340558,82.9786090
Andhra Pradesh Circle,Visakhapatnam Region,Vizianagaram Division,Rompalli B.O,535273,BO,Delivery,VISAKHAPATANAM,ANDHRA PRADESH,18.3102030,83.2209420
Andhra Pradesh Circle,Visakhapatnam Region,Vizianagaram Division,Bheempolu B.O,535145,BO,Delivery,VISAKHAPATANAM,ANDHRA PRADESH,17.8875170,83.4456800
Andhra Pradesh Circle,Visakhapatnam Region,Vizianagaram Division,Kasipatnam B.O,535145,BO,Delivery,VISAKHAPATANAM,ANDHRA PRADESH,18.6529130,83.2964170
Andhra Pradesh Circle,Visakhapatnam Region,Vizianagaram Division,Konapuram B.O,535145,BO,Delivery,VISAKHAPATANAM,ANDHRA PRADESH,18.6539630,78.8375570
Andhra Pradesh Circle,Visakhapatnam Region,Vizianagaram Division,Kondiba B.O,535145,BO,Delivery,VISAKHAPATANAM,ANDHRA PRADESH,18.2031320,83.0280820
Andhra Pradesh Circle,Visakhapatnam Region,Anakapalle Division,Lalamkoduru B.O,531011,BO,Delivery,VISAKHAPATANAM,ANDHRA PRADESH,17.4922668,82.9608458
Andhra Pradesh Circle,Visakhapatnam Region,Anakapalle Division,Chukkapalle B.O,531036,BO,Delivery,VISAKHAPATANAM,ANDHRA PRADESH,17.8553280,82.9447780
Andhra Pradesh Circle,Visakhapatnam Region,Anakapalle Division,Kandepalli B.O,531036,BO,Delivery,VISAKHAPATANAM,ANDHRA PRADESH,17.8330550,82.9092690
Andhra Pradesh Circle,Visakhapatnam Region,Anakapalle Division,LAXMIPURAM B.O,531036,BO,Delivery,VISAKHAPATANAM,ANDHRA PRADESH,17.8265180,82.8981110
Andhra Pradesh Circle,Visakhapatnam Region,Anakapalle Division,Turuvolu B.O,531036,BO,Delivery,VISAKHAPATANAM,ANDHRA PRADESH,17.9265030,82.9244610
Andhra Pradesh Circle,Visakhapatnam Region,Vizianagaram Division,Kothuru B.O,535145,BO,Delivery,VISAKHAPATANAM,ANDHRA PRADESH,18.7028490,84.2344660
Andhra Pradesh Circle,Visakhapatnam Region,Anakapalle Division,Bennavolu B.O,531036,BO,Delivery,VISAKHAPATANAM,ANDHRA PRADESH,17.7741740,82.8990510
Andhra Pradesh Circle,Visakhapatnam Region,Anakapalle Division,Chinanadipalli B.O,531030,BO,Delivery,VISAKHAPATANAM,ANDHRA PRADESH,17.9455980,82.9834270
Andhra Pradesh Circle,Visakhapatnam Region,Anakapalle Division,Raivada B.O,531030,BO,Delivery,VISAKHAPATANAM,ANDHRA PRADESH,17.9885650,82.9635980
Andhra Pradesh Circle,Visakhapatnam Region,Anakapalle Division,Garisingi B.O,531030,BO,Delivery,VISAKHAPATANAM,ANDHRA PRADESH,17.9529740,82.9165390
Andhra Pradesh Circle,Visakhapatnam Region,Anakapalle Division,Gorapudi B.O,531061,BO,Delivery,VISAKHAPATANAM,ANDHRA PRADESH,17.4695000,82.9375930
Andhra Pradesh Circle,Visakhapatnam Region,Anakapalle Division,Rambilli B.O,531061,BO,Delivery,VISAKHAPATANAM,ANDHRA PRADESH,17.4649970,82.9296970
Andhra Pradesh Circle,Visakhapatnam Region,Anakapalle Division,Bhogapuram B.O,531023,BO,Delivery,VISAKHAPATANAM,ANDHRA PRADESH,17.7770770,82.9538150
Andhra Pradesh Circle,Visakhapatnam Region,Anakapalle Division,Juttada B.O,531023,BO,Delivery,VISAKHAPATANAM,ANDHRA PRADESH,17.8227590,82.9666040
Andhra Pradesh Circle,Visakhapatnam Region,Anakapalle Division,Lankelapalem B.O,531019,BO,Delivery,VISAKHAPATANAM,ANDHRA PRADESH,17.6875840,83.0962940
Andhra Pradesh Circle,Visakhapatnam Region,Anakapalle Division,Narsingaraopeta B.O,531019,BO,Delivery,VISAKHAPATANAM,ANDHRA PRADESH,17.6907384,83.0574327
Andhra Pradesh Circle,Visakhapatnam Region,Anakapalle Division,Valluru B.O,531019,BO,Delivery,VISAKHAPATANAM,ANDHRA PRADESH,17.6533730,83.0375000
Andhra Pradesh Circle,Visakhapatnam Region,Anakapalle Division,Arle B.O,531034,BO,Delivery,VISAKHAPATANAM,ANDHRA PRADESH,17.8721440,83.0547310
Andhra Pradesh Circle,Visakhapatnam Region,Anakapalle Division,Gullepalle B.O,531034,BO,Delivery,VISAKHAPATANAM,ANDHRA PRADESH,17.8517447,83.0170874
Andhra Pradesh Circle,Visakhapatnam Region,Anakapalle Division,Medicherla B.O,531034,BO,Delivery,VISAKHAPATANAM,ANDHRA PRADESH,17.8544130,83.0012210
Andhra Pradesh Circle,Visakhapatnam Region,Anakapalle Division,Rongalinaidupalem B.O,531034,BO,Delivery,VISAKHAPATANAM,ANDHRA PRADESH,17.8812653,83.0101667
Andhra Pradesh Circle,Visakhapatnam Region,Visakhapatnam Division,NSTL B.O,530027,BO,Non Delivery,VISAKHAPATANAM,ANDHRA PRADESH,17.7458260,83.2372900
Andhra Pradesh Circle,Visakhapatnam Region,Anakapalle Division,Maduthuru B.O,531011,BO,Delivery,VISAKHAPATANAM,ANDHRA PRADESH,17.5597855,83.0128834
Andhra Pradesh Circle,Visakhapatnam Region,Anakapalle Division,Chettupalle B.O,531036,BO,Delivery,VISAKHAPATANAM,ANDHRA PRADESH,17.9024716,82.9283416
Andhra Pradesh Circle,Visakhapatnam Region,Anakapalle Division,Kandipudi B.O,531036,BO,Delivery,VISAKHAPATANAM,ANDHRA PRADESH,17.7559890,82.8894420
Andhra Pradesh Circle,Visakhapatnam Region,Anakapalle Division,Mallam B.O,531036,BO,Delivery,VISAKHAPATANAM,ANDHRA PRADESH,17.7371870,82.9087540
Andhra Pradesh Circle,Visakhapatnam Region,Anakapalle Division,Varahapuram B.O,531036,BO,Delivery,VISAKHAPATANAM,ANDHRA PRADESH,17.8653260,82.9121880
Andhra Pradesh Circle,Visakhapatnam Region,Anakapalle Division,Timmannapalem B.O,531036,BO,Delivery,VISAKHAPATANAM,ANDHRA PRADESH,17.6894820,83.1675800
Andhra Pradesh Circle,Visakhapatnam Region,Anakapalle Division,Neelakantapuram B.O,531036,BO,Delivery,VISAKHAPATANAM,ANDHRA PRADESH,17.7388500,82.8990510
Andhra Pradesh Circle,Visakhapatnam Region,Anakapalle Division,Alamanda B.O,531030,BO,Delivery,VISAKHAPATANAM,ANDHRA PRADESH,17.9318080,83.0032360
Andhra Pradesh Circle,Visakhapatnam Region,Anakapalle Division,Kasipuram B.O,531030,BO,Delivery,VISAKHAPATANAM,ANDHRA PRADESH,17.9596830,82.9904650
Andhra Pradesh Circle,Visakhapatnam Region,Anakapalle Division,Kiverla B.O,531030,BO,Delivery,VISAKHAPATANAM,ANDHRA PRADESH,18.0755040,82.9373790
Andhra Pradesh Circle,Visakhapatnam Region,Anakapalle Division,Tenugupudi B.O,531030,BO,Delivery,VISAKHAPATANAM,ANDHRA PRADESH,17.9522250,82.9361340
Andhra Pradesh Circle,Visakhapatnam Region,Anakapalle Division,Zeenabadu B.O,531030,BO,Delivery,VISAKHAPATANAM,ANDHRA PRADESH,18.0057800,82.9575060
Andhra Pradesh Circle,Visakhapatnam Region,Anakapalle Division,Dharapalem B.O,531061,BO,Delivery,VISAKHAPATANAM,ANDHRA PRADESH,17.5395690,82.9005150
Andhra Pradesh Circle,Visakhapatnam Region,Anakapalle Division,Duddupalem B.O,531023,BO,Delivery,VISAKHAPATANAM,ANDHRA PRADESH,17.7682400,83.0215050
Andhra Pradesh Circle,Visakhapatnam Region,Anakapalle Division,Rayapurajupeta B.O,531023,BO,Delivery,VISAKHAPATANAM,ANDHRA PRADESH,17.8113190,82.9811100
Andhra Pradesh Circle,Visakhapatnam Region,Anakapalle Division,Maredupudi B.O,531019,BO,Delivery,VISAKHAPATANAM,ANDHRA PRADESH,17.6851610,83.0649970
Andhra Pradesh Circle,Visakhapatnam Region,Anakapalle Division,Kothapenta B.O,531034,BO,Delivery,VISAKHAPATANAM,ANDHRA PRADESH,17.9040997,83.0000005
Andhra Pradesh Circle,Visakhapatnam Region,Anakapalle Division,Pydampeta B.O,531034,BO,Delivery,VISAKHAPATANAM,ANDHRA PRADESH,17.8667132,83.0017047
Andhra Pradesh Circle,Visakhapatnam Region,Anakapalle Division,Atcherla B.O,531031,BO,Delivery,VISAKHAPATANAM,ANDHRA PRADESH,17.6552962,82.8553533
Andhra Pradesh Circle,Visakhapatnam Region,Visakhapatnam Division,Prahladapuram B.O,530027,BO,Delivery,VISAKHAPATANAM,ANDHRA PRADESH,17.7620110,83.2211540
Andhra Pradesh Circle,Visakhapatnam Region,Visakhapatnam Division,Dibbapalem B.O,530044,BO,Delivery,VISAKHAPATANAM,ANDHRA PRADESH,17.6322410,83.2365480
Andhra Pradesh Circle,Visakhapatnam Region,Visakhapatnam Division,Gangavaram B.O,530044,BO,Delivery,VISAKHAPATANAM,ANDHRA PRADESH,17.6214620,83.2297930
Andhra Pradesh Circle,Visakhapatnam Region,Visakhapatnam Division,Gandigundam B.O,531173,BO,Delivery,VISAKHAPATANAM,ANDHRA PRADESH,17.8427490,83.2559530
Andhra Pradesh Circle,Visakhapatnam Region,Visakhapatnam Division,Gidijala B.O,531173,BO,Delivery,VISAKHAPATANAM,ANDHRA PRADESH,17.8920360,83.2967520
Andhra Pradesh Circle,Visakhapatnam Region,Visakhapatnam Division,Gorapalle B.O,531173,BO,Delivery,VISAKHAPATANAM,ANDHRA PRADESH,17.8127950,83.1568600
Andhra Pradesh Circle,Visakhapatnam Region,Visakhapatnam Division,Gurrampalem B.O,531173,BO,Delivery,VISAKHAPATANAM,ANDHRA PRADESH,17.8202650,83.1985300
Andhra Pradesh Circle,Visakhapatnam Region,Visakhapatnam Division,Pedagadi B.O,531173,BO,Delivery,VISAKHAPATANAM,ANDHRA PRADESH,17.7965830,83.1776280
Andhra Pradesh Circle,Visakhapatnam Region,Visakhapatnam Division,Rampuram B.O,531173,BO,Delivery,VISAKHAPATANAM,ANDHRA PRADESH,17.7892320,83.1568600
Andhra Pradesh Circle,Visakhapatnam Region,Visakhapatnam Division,Penta B.O,531219,BO,Delivery,VISAKHAPATANAM,ANDHRA PRADESH,17.9621260,83.2780280
Andhra Pradesh Circle,Visakhapatnam Region,Visakhapatnam Division,Ananthavaram B.O,531219,BO,Delivery,VISAKHAPATANAM,ANDHRA PRADESH,17.9674590,83.2937430
Andhra Pradesh Circle,Visakhapatnam Region,Visakhapatnam Division,Duvvada B.O,530049,BO,Delivery,VISAKHAPATANAM,ANDHRA PRADESH,17.7000600,83.1535990
Andhra Pradesh Circle,Visakhapatnam Region,Visakhapatnam Division,Pedamadaka B.O,530053,BO,Delivery,VISAKHAPATANAM,ANDHRA PRADESH,17.6405150,83.1139620
Andhra Pradesh Circle,Visakhapatnam Region,Visakhapatnam Division,Yendada B.O,530045,BO,Delivery,VISAKHAPATANAM,ANDHRA PRADESH,17.7771210,83.3615750
Andhra Pradesh Circle,Visakhapatnam Region,Visakhapatnam Division,Pedagadili B.O,530040,BO,Non Delivery,VISAKHAPATANAM,ANDHRA PRADESH,17.7592250,83.3197090
Andhra Pradesh Circle,Visakhapatnam Region,Visakhapatnam Division,Sri krishnapuram B.O,530040,BO,Delivery,VISAKHAPATANAM,ANDHRA PRADESH,17.7697090,83.2811530
Andhra Pradesh Circle,Visakhapatnam Region,Visakhapatnam Division,Dayalnagar B.O,530043,BO,Non Delivery,VISAKHAPATANAM,ANDHRA PRADESH,17.7537700,83.3462100
Andhra Pradesh Circle,Visakhapatnam Region,Visakhapatnam Division,Boddapalem B.O,531163,BO,Delivery,VISAKHAPATANAM,ANDHRA PRADESH,17.7303920,83.2867220
Andhra Pradesh Circle,Visakhapatnam Region,Visakhapatnam Division,Boyapalem B.O,531163,BO,Delivery,VISAKHAPATANAM,ANDHRA PRADESH,17.7303920,83.2867220
Andhra Pradesh Circle,Visakhapatnam Region,Visakhapatnam Division,Vemulavalasa B.O,530052,BO,Delivery,VISAKHAPATANAM,ANDHRA PRADESH,17.8949110,83.3809420
Andhra Pradesh Circle,Visakhapatnam Region,Visakhapatnam Division,Amanam B.O,531162,BO,Delivery,VISAKHAPATANAM,ANDHRA PRADESH,17.9588070,83.4616880
Andhra Pradesh Circle,Visakhapatnam Region,Visakhapatnam Division,Nagamayyapalem B.O,531162,BO,Delivery,VISAKHAPATANAM,ANDHRA PRADESH,17.7118270,83.1963810
Andhra Pradesh Circle,Visakhapatnam Region,Visakhapatnam Division,Tallavalasa B.O,531162,BO,Delivery,VISAKHAPATANAM,ANDHRA PRADESH,17.9037630,83.4029740
Andhra Pradesh Circle,Visakhapatnam Region,Visakhapatnam Division,Yarada B.O,530005,BO,Delivery,VISAKHAPATANAM,ANDHRA PRADESH,17.6631000,83.2780280
Andhra Pradesh Circle,Visakhapatnam Region,Visakhapatnam Division,Yellapuvanipalem B.O,530027,BO,Delivery,VISAKHAPATANAM,ANDHRA PRADESH,17.7375520,83.2164680
Andhra Pradesh Circle,Visakhapatnam Region,Visakhapatnam Division,Balacheruvu B.O,530044,BO,Delivery,VISAKHAPATANAM,ANDHRA PRADESH,17.6543650,83.1961380
Andhra Pradesh Circle,Visakhapatnam Region,Visakhapatnam Division,V. Juttada B.O,531173,BO,Delivery,VISAKHAPATANAM,ANDHRA PRADESH,17.8249990,83.2325330
Andhra Pradesh Circle,Visakhapatnam Region,Anakapalle Division,Gopalapuram B.O,531002,BO,Delivery,VISAKHAPATANAM,ANDHRA PRADESH,17.6914259,17.6914259
Andhra Pradesh Circle,Visakhapatnam Region,Anakapalle Division,Boddaput B.O,531077,BO,Delivery,VISAKHAPATANAM,ANDHRA PRADESH,18.5645740,82.3263560
Andhra Pradesh Circle,Visakhapatnam Region,Anakapalle Division,Konkasingi B.O,531084,BO,Delivery,VISAKHAPATANAM,ANDHRA PRADESH,17.6519866,82.3713633
Andhra Pradesh Circle,Visakhapatnam Region,Anakapalle Division,Nadimpalem B.O,531084,BO,Delivery,VISAKHAPATANAM,ANDHRA PRADESH,17.7436633,82.3688033
Andhra Pradesh Circle,Visakhapatnam Region,Anakapalle Division,Old K D Peta B.O,531084,BO,Delivery,VISAKHAPATANAM,ANDHRA PRADESH,17.6734850,82.3771833
Andhra Pradesh Circle,Visakhapatnam Region,Anakapalle Division,Pappusettipalem B.O,531084,BO,Delivery,VISAKHAPATANAM,ANDHRA PRADESH,17.6884840,82.3408560
Andhra Pradesh Circle,Visakhapatnam Region,Anakapalle Division,Bennabhupalapatnam B.O,531118,BO,Delivery,VISAKHAPATANAM,ANDHRA PRADESH,17.7485822,82.5973823
Andhra Pradesh Circle,Visakhapatnam Region,Anakapalle Division,Butchampeta B.O,531118,BO,Delivery,VISAKHAPATANAM,ANDHRA PRADESH,17.7322163,82.6054370
Andhra Pradesh Circle,Visakhapatnam Region,Anakapalle Division,Chettupalle B.O,531118,BO,Delivery,VISAKHAPATANAM,ANDHRA PRADESH,17.6832416,82.6492138
Andhra Pradesh Circle,Visakhapatnam Region,Anakapalle Division,Sanivaram B.O,531118,BO,Delivery,VISAKHAPATANAM,ANDHRA PRADESH,17.8689340,82.5688817
Andhra Pradesh Circle,Visakhapatnam Region,Anakapalle Division,Rachapalli B.O,531113,BO,Delivery,VISAKHAPATANAM,ANDHRA PRADESH,17.6111290,82.7404530
Andhra Pradesh Circle,Visakhapatnam Region,Anakapalle Division,Marripalem B.O,531115,BO,Delivery,VISAKHAPATANAM,ANDHRA PRADESH,17.5844940,82.5369360
Andhra Pradesh Circle,Visakhapatnam Region,Anakapalle Division,Kindangi B.O,531024,BO,Delivery,VISAKHAPATANAM,ANDHRA PRADESH,18.0735202,82.6825671
Andhra Pradesh Circle,Visakhapatnam Region,Anakapalle Division,Legisipalli B.O,531024,BO,Delivery,VISAKHAPATANAM,ANDHRA PRADESH,18.0559383,82.6650832
Andhra Pradesh Circle,Visakhapatnam Region,Anakapalle Division,Basiputtu B.O,531040,BO,Delivery,VISAKHAPATANAM,ANDHRA PRADESH,18.2376533,82.3660300
Andhra Pradesh Circle,Visakhapatnam Region,Anakapalle Division,Jarrela B.O,531040,BO,Delivery,VISAKHAPATANAM,ANDHRA PRADESH,18.3494886,82.5075048
Andhra Pradesh Circle,Visakhapatnam Region,Anakapalle Division,Jolaput B.O,531040,BO,Delivery,VISAKHAPATANAM,ANDHRA PRADESH,18.4556450,82.5437660
Andhra Pradesh Circle,Visakhapatnam Region,Anakapalle Division,Kilagada B.O,531040,BO,Delivery,VISAKHAPATANAM,ANDHRA PRADESH,18.3199980,82.5350861
Andhra Pradesh Circle,Visakhapatnam Region,Anakapalle Division,Sujanakota B.O,531040,BO,Delivery,VISAKHAPATANAM,ANDHRA PRADESH,18.3833729,82.5438033
Andhra Pradesh Circle,Visakhapatnam Region,Anakapalle Division,Vanabhangi B.O,531040,BO,Delivery,VISAKHAPATANAM,ANDHRA PRADESH,18.2152950,82.5856966
Andhra Pradesh Circle,Visakhapatnam Region,Anakapalle Division,Laxmipeta B.O,531040,BO,Delivery,VISAKHAPATANAM,ANDHRA PRADESH,18.2515340,82.5453260
Andhra Pradesh Circle,Visakhapatnam Region,Anakapalle Division,Koravangi B.O,531040,BO,Delivery,VISAKHAPATANAM,ANDHRA PRADESH,18.2590160,82.4405120
Andhra Pradesh Circle,Visakhapatnam Region,Anakapalle Division,Injari B.O,531040,BO,Delivery,VISAKHAPATANAM,ANDHRA PRADESH,18.1667100,82.3900370
Andhra Pradesh Circle,Visakhapatnam Region,Anakapalle Division,Vanagumma B.O,531040,BO,Delivery,VISAKHAPATANAM,ANDHRA PRADESH,18.4785370,82.4645840
Andhra Pradesh Circle,Visakhapatnam Region,Visakhapatnam Division,MUDAPAKA,531173,BO,Delivery,VISAKHAPATANAM,ANDHRA PRADESH,17.8294830,83.2131210
Andhra Pradesh Circle,Visakhapatnam Region,Visakhapatnam Division,Gandhavaram B.O,531219,BO,Delivery,VISAKHAPATANAM,ANDHRA PRADESH,17.9812860,83.2780280
Andhra Pradesh Circle,Visakhapatnam Region,Visakhapatnam Division,Kovvada B.O,531219,BO,Delivery,VISAKHAPATANAM,ANDHRA PRADESH,17.9484630,83.2452480
Andhra Pradesh Circle,Visakhapatnam Region,Visakhapatnam Division,Kusuluwada B.O,531219,BO,Delivery,VISAKHAPATANAM,ANDHRA PRADESH,17.9259970,83.2773590
Andhra Pradesh Circle,Visakhapatnam Region,Visakhapatnam Division,Venkatapuram B.O,530029,BO,Delivery,VISAKHAPATANAM,ANDHRA PRADESH,17.7566920,83.2142960
Andhra Pradesh Circle,Visakhapatnam Region,Visakhapatnam Division,Vedullanarava B.O,530049,BO,Delivery,VISAKHAPATANAM,ANDHRA PRADESH,17.7165510,83.1467920
Andhra Pradesh Circle,Visakhapatnam Region,Visakhapatnam Division,Devada B.O,530031,BO,Delivery,VISAKHAPATANAM,ANDHRA PRADESH,17.5670310,83.1166440
Andhra Pradesh Circle,Visakhapatnam Region,Vizianagaram Division,Ainada B.O,535005,BO,Delivery,VISAKHAPATANAM,ANDHRA PRADESH,18.0463760,83.3804050
Andhra Pradesh Circle,Visakhapatnam Region,Anakapalle Division,Gudivada B.O,531083,BO,Delivery,VISAKHAPATANAM,ANDHRA PRADESH,17.3994640,82.7914086
Andhra Pradesh Circle,Visakhapatnam Region,Anakapalle Division,Pedauppalam B.O,531083,BO,Delivery,VISAKHAPATANAM,ANDHRA PRADESH,17.4243359,82.7973166
Andhra Pradesh Circle,Visakhapatnam Region,Anakapalle Division,Revupolavaram B.O,531083,BO,Delivery,VISAKHAPATANAM,ANDHRA PRADESH,17.4487120,82.7393288
Andhra Pradesh Circle,Visakhapatnam Region,Anakapalle Division,Timmapuram B.O,531083,BO,Delivery,VISAKHAPATANAM,ANDHRA PRADESH,17.4299944,82.7443767
Andhra Pradesh Circle,Visakhapatnam Region,Anakapalle Division,Gunnempudi B.O,531025,BO,Delivery,VISAKHAPATANAM,ANDHRA PRADESH,17.7629083,82.8312883
Andhra Pradesh Circle,Visakhapatnam Region,Anakapalle Division,Marupaka B.O,531025,BO,Delivery,VISAKHAPATANAM,ANDHRA PRADESH,17.7754749,82.7964233
Andhra Pradesh Circle,Visakhapatnam Region,Anakapalle Division,Medivada B.O,531025,BO,Delivery,VISAKHAPATANAM,ANDHRA PRADESH,17.7840783,82.7799166
Andhra Pradesh Circle,Visakhapatnam Region,Anakapalle Division,Seethayyapeta B.O,531025,BO,Delivery,VISAKHAPATANAM,ANDHRA PRADESH,17.7322433,82.8313683
Andhra Pradesh Circle,Visakhapatnam Region,Anakapalle Division,Tattabanda B.O,531025,BO,Delivery,VISAKHAPATANAM,ANDHRA PRADESH,17.7216016,82.7956133
Andhra Pradesh Circle,Visakhapatnam Region,Anakapalle Division,China Appannapalem B.O,531026,BO,Delivery,VISAKHAPATANAM,ANDHRA PRADESH,17.8222528,82.8826649
Andhra Pradesh Circle,Visakhapatnam Region,Anakapalle Division,Chinamadina B.O,531026,BO,Delivery,VISAKHAPATANAM,ANDHRA PRADESH,17.7560329,82.8611108
Andhra Pradesh Circle,Visakhapatnam Region,Anakapalle Division,Sarabhannapalem B.O,531084,BO,Delivery,VISAKHAPATANAM,ANDHRA PRADESH,17.7576866,82.3692966
Andhra Pradesh Circle,Visakhapatnam Region,Anakapalle Division,Manchala B.O,531028,BO,Delivery,VISAKHAPATANAM,ANDHRA PRADESH,17.9477816,82.8848699
Andhra Pradesh Circle,Visakhapatnam Region,Anakapalle Division,Sirijam B.O,531028,BO,Delivery,VISAKHAPATANAM,ANDHRA PRADESH,17.9331150,82.8693166
Andhra Pradesh Circle,Visakhapatnam Region,Anakapalle Division,Bapiraju Kothapalli B.O,531085,BO,Delivery,VISAKHAPATANAM,ANDHRA PRADESH,17.5947005,82.6487284
Andhra Pradesh Circle,Visakhapatnam Region,Anakapalle Division,Kodavatipudi B.O,531085,BO,Delivery,VISAKHAPATANAM,ANDHRA PRADESH,17.4883910,82.6064690
Andhra Pradesh Circle,Visakhapatnam Region,Anakapalle Division,Lingapuram B.O,531085,BO,Delivery,VISAKHAPATANAM,ANDHRA PRADESH,17.5667998,82.6680000
Andhra Pradesh Circle,Visakhapatnam Region,Anakapalle Division,Dondapudi B.O,531114,BO,Delivery,VISAKHAPATANAM,ANDHRA PRADESH,17.7618439,82.7245879
Andhra Pradesh Circle,Visakhapatnam Region,Anakapalle Division,Chintalapudi B.O,531087,BO,Delivery,VISAKHAPATANAM,ANDHRA PRADESH,17.6293846,82.2894087
Andhra Pradesh Circle,Visakhapatnam Region,Anakapalle Division,Gangavaram B.O,531087,BO,Delivery,VISAKHAPATANAM,ANDHRA PRADESH,17.6791588,82.1703568
Andhra Pradesh Circle,Visakhapatnam Region,Visakhapatnam Division,Nagarajupalem B.O,531162,BO,Delivery,VISAKHAPATANAM,ANDHRA PRADESH,17.9340890,83.4307970
Andhra Pradesh Circle,Visakhapatnam Region,Visakhapatnam Division,Pandranki B.O,531162,BO,Delivery,VISAKHAPATANAM,ANDHRA PRADESH,17.9633020,83.3659160
Andhra Pradesh Circle,Visakhapatnam Region,Vizianagaram Division,Pindrangi B.O,535183,BO,Delivery,VISAKHAPATANAM,ANDHRA PRADESH,17.9106890,83.0925020
Andhra Pradesh Circle,Visakhapatnam Region,Vizianagaram Division,Pedaraba B.O,535273,BO,Delivery,VISAKHAPATANAM,ANDHRA PRADESH,18.3141140,83.2154920
Andhra Pradesh Circle,Visakhapatnam Region,Vizianagaram Division,Y S R Puram B.O,535145,BO,Delivery,VISAKHAPATANAM,ANDHRA PRADESH,18.2255350,83.0971970
Andhra Pradesh Circle,Visakhapatnam Region,Vizianagaram Division,Ananthagiri B.O,535145,BO,Delivery,VISAKHAPATANAM,ANDHRA PRADESH,18.1968730,82.9978630
Andhra Pradesh Circle,Visakhapatnam Region,Vizianagaram Division,B G Valasa B.O,535145,BO,Delivery,VISAKHAPATANAM,ANDHRA PRADESH,18.7695010,84.3588060
Andhra Pradesh Circle,Visakhapatnam Region,Anakapalle Division,Appalrajupuram B.O,531028,BO,Delivery,VISAKHAPATANAM,ANDHRA PRADESH,17.8952233,82.8640283
Andhra Pradesh Circle,Visakhapatnam Region,Anakapalle Division,Kandivaram B.O,531028,BO,Delivery,VISAKHAPATANAM,ANDHRA PRADESH,17.9172449,82.8606166
Andhra Pradesh Circle,Visakhapatnam Region,Anakapalle Division,Chintaluru B.O,531028,BO,Delivery,VISAKHAPATANAM,ANDHRA PRADESH,17.8723180,82.8452150
Andhra Pradesh Circle,Visakhapatnam Region,Anakapalle Division,Bylapudi B.O,531028,BO,Delivery,VISAKHAPATANAM,ANDHRA PRADESH,17.8731070,82.8667540
Andhra Pradesh Circle,Visakhapatnam Region,Anakapalle Division,Panduru B.O,531085,BO,Delivery,VISAKHAPATANAM,ANDHRA PRADESH,17.5083121,82.6278330
Andhra Pradesh Circle,Visakhapatnam Region,Anakapalle Division,Venkatapuram B.O,531085,BO,Delivery,VISAKHAPATANAM,ANDHRA PRADESH,17.5083168,82.6277714
Andhra Pradesh Circle,Visakhapatnam Region,Anakapalle Division,Kannampeta B.O,531114,BO,Delivery,VISAKHAPATANAM,ANDHRA PRADESH,17.7244368,82.7038111
Andhra Pradesh Circle,Visakhapatnam Region,Anakapalle Division,Kothapatnam B.O,531114,BO,Delivery,VISAKHAPATANAM,ANDHRA PRADESH,17.7799050,82.6972936
Andhra Pradesh Circle,Visakhapatnam Region,Anakapalle Division,Budarallu B.O,531087,BO,Delivery,VISAKHAPATANAM,ANDHRA PRADESH,17.7284869,82.2531010
Andhra Pradesh Circle,Visakhapatnam Region,Anakapalle Division,M Makavaram B.O,531087,BO,Delivery,VISAKHAPATANAM,ANDHRA PRADESH,17.6362552,82.2695068
Andhra Pradesh Circle,Visakhapatnam Region,Anakapalle Division,Tallapalem B.O,531031,BO,Delivery,VISAKHAPATANAM,ANDHRA PRADESH,17.6339158,82.8918516
Andhra Pradesh Circle,Visakhapatnam Region,Anakapalle Division,Theeda B.O,531031,BO,Delivery,VISAKHAPATANAM,ANDHRA PRADESH,17.6337277,82.8188814
Andhra Pradesh Circle,Visakhapatnam Region,Anakapalle Division,Ugginapalem B.O,531031,BO,Delivery,VISAKHAPATANAM,ANDHRA PRADESH,17.6454758,82.8962952
Andhra Pradesh Circle,Visakhapatnam Region,Anakapalle Division,Veduruparthi B.O,531031,BO,Delivery,VISAKHAPATANAM,ANDHRA PRADESH,17.6339895,82.9506797
Andhra Pradesh Circle,Visakhapatnam Region,Anakapalle Division,Vadrapalem B.O,531075,BO,Delivery,VISAKHAPATANAM,ANDHRA PRADESH,17.9129266,82.9903483
Andhra Pradesh Circle,Visakhapatnam Region,Anakapalle Division,Khazeepalem B.O,531033,BO,Delivery,VISAKHAPATANAM,ANDHRA PRADESH,17.5993020,82.9417990
Andhra Pradesh Circle,Visakhapatnam Region,Anakapalle Division,Kondakarla B.O,531033,BO,Delivery,VISAKHAPATANAM,ANDHRA PRADESH,17.6173124,82.9808563
Andhra Pradesh Circle,Visakhapatnam Region,Anakapalle Division,Pallapu Anandapuram B.O,531033,BO,Delivery,VISAKHAPATANAM,ANDHRA PRADESH,17.6111960,82.9423010
Andhra Pradesh Circle,Visakhapatnam Region,Anakapalle Division,Thimmarajupeta B.O,531033,BO,Delivery,VISAKHAPATANAM,ANDHRA PRADESH,17.6192997,82.9773647
Andhra Pradesh Circle,Visakhapatnam Region,Anakapalle Division,Vadrapalle B.O,531033,BO,Delivery,VISAKHAPATANAM,ANDHRA PRADESH,17.6166669,83.0039650
Andhra Pradesh Circle,Visakhapatnam Region,Anakapalle Division,Ch Laxmipuram B.O,531081,BO,Delivery,VISAKHAPATANAM,ANDHRA PRADESH,17.4018890,82.7385520
Andhra Pradesh Circle,Visakhapatnam Region,Anakapalle Division,Vempadu B.O,531081,BO,Delivery,VISAKHAPATANAM,ANDHRA PRADESH,17.3853300,82.6622490
Andhra Pradesh Circle,Visakhapatnam Region,Anakapalle Division,Kagitha B.O,531081,BO,Delivery,VISAKHAPATANAM,ANDHRA PRADESH,17.3995130,82.6868190
Andhra Pradesh Circle,Visakhapatnam Region,Anakapalle Division,Nellipudi B.O,531081,BO,Delivery,VISAKHAPATANAM,ANDHRA PRADESH,17.3619070,82.6429420
Andhra Pradesh Circle,Visakhapatnam Region,Anakapalle Division,Thanam B.O,531021,BO,Delivery,VISAKHAPATANAM,ANDHRA PRADESH,17.6467480,83.0694290
Andhra Pradesh Circle,Visakhapatnam Region,Anakapalle Division,Vennalapalem B.O,531021,BO,Delivery,VISAKHAPATANAM,ANDHRA PRADESH,17.6101460,83.0871360
Andhra Pradesh Circle,Visakhapatnam Region,Anakapalle Division,Donkada B.O,531126,BO,Delivery,VISAKHAPATANAM,ANDHRA PRADESH,17.4176949,82.6118900
Andhra Pradesh Circle,Visakhapatnam Region,Anakapalle Division,Guntapalle B.O,531126,BO,Delivery,VISAKHAPATANAM,ANDHRA PRADESH,17.3638066,82.6007433
Andhra Pradesh Circle,Visakhapatnam Region,Anakapalle Division,Mangavaram B.O,531126,BO,Delivery,VISAKHAPATANAM,ANDHRA PRADESH,17.3467026,82.5920393
Andhra Pradesh Circle,Visakhapatnam Region,Anakapalle Division,Namavaram B.O,531126,BO,Delivery,VISAKHAPATANAM,ANDHRA PRADESH,17.3638516,82.6007583
Andhra Pradesh Circle,Visakhapatnam Region,Anakapalle Division,Thotaluru B.O,531084,BO,Delivery,VISAKHAPATANAM,ANDHRA PRADESH,17.6614216,82.3354900
Andhra Pradesh Circle,Visakhapatnam Region,Anakapalle Division,Gadampalem B.O,531084,BO,Delivery,VISAKHAPATANAM,ANDHRA PRADESH,17.6367560,82.4481940
Andhra Pradesh Circle,Visakhapatnam Region,Anakapalle Division,Cheedikada B.O,531028,BO,Delivery,VISAKHAPATANAM,ANDHRA PRADESH,17.9289416,82.8920100
Andhra Pradesh Circle,Visakhapatnam Region,Anakapalle Division,Konam B.O,531028,BO,Delivery,VISAKHAPATANAM,ANDHRA PRADESH,17.9724383,82.8567416
Andhra Pradesh Circle,Visakhapatnam Region,Anakapalle Division,M Kotapadu B.O,531028,BO,Delivery,VISAKHAPATANAM,ANDHRA PRADESH,17.8798800,82.8274233
Andhra Pradesh Circle,Visakhapatnam Region,Anakapalle Division,Kalayanapulova B.O,531114,BO,Delivery,VISAKHAPATANAM,ANDHRA PRADESH,17.7502753,82.6946573
Andhra Pradesh Circle,Visakhapatnam Region,Anakapalle Division,Kanchugummala B.O,531114,BO,Delivery,VISAKHAPATANAM,ANDHRA PRADESH,17.7305350,82.6726470
Andhra Pradesh Circle,Visakhapatnam Region,Anakapalle Division,Kovvuru B.O,531114,BO,Delivery,VISAKHAPATANAM,ANDHRA PRADESH,17.7148680,82.6426790
Andhra Pradesh Circle,Visakhapatnam Region,Anakapalle Division,Rolugunta B.O,531114,BO,Delivery,VISAKHAPATANAM,ANDHRA PRADESH,17.7187920,82.6679990
Andhra Pradesh Circle,Visakhapatnam Region,Anakapalle Division,Tamaracherla B.O,531114,BO,Delivery,VISAKHAPATANAM,ANDHRA PRADESH,17.7742586,82.7435000
Andhra Pradesh Circle,Visakhapatnam Region,Anakapalle Division,V Sarabhavaram B.O,531114,BO,Delivery,VISAKHAPATANAM,ANDHRA PRADESH,17.7468330,82.6292040
Andhra Pradesh Circle,Visakhapatnam Region,Anakapalle Division,Pedamakavaram B.O,531084,BO,Delivery,VISAKHAPATANAM,ANDHRA PRADESH,17.7290550,82.3761300
Andhra Pradesh Circle,Visakhapatnam Region,Anakapalle Division,Jaithavaram B.O,531028,BO,Delivery,VISAKHAPATANAM,ANDHRA PRADESH,17.9033549,82.8762966
Andhra Pradesh Circle,Visakhapatnam Region,Anakapalle Division,Veeranarayanam B.O,531028,BO,Delivery,VISAKHAPATANAM,ANDHRA PRADESH,17.8669449,82.8192749
Andhra Pradesh Circle,Visakhapatnam Region,Anakapalle Division,Gotivada Agraharam B.O,531028,BO,Delivery,VISAKHAPATANAM,ANDHRA PRADESH,17.8422810,82.8290550
Andhra Pradesh Circle,Visakhapatnam Region,Anakapalle Division,V B Peta B.O,531028,BO,Delivery,VISAKHAPATANAM,ANDHRA PRADESH,17.4117970,82.0449140
Andhra Pradesh Circle,Visakhapatnam Region,Anakapalle Division,Kailasapatnam B.O,531085,BO,Delivery,VISAKHAPATANAM,ANDHRA PRADESH,17.5535522,82.6957582
Andhra Pradesh Circle,Visakhapatnam Region,Anakapalle Division,Rajupeta B.O,531085,BO,Delivery,VISAKHAPATANAM,ANDHRA PRADESH,17.5654915,82.7093900
Andhra Pradesh Circle,Visakhapatnam Region,Anakapalle Division,Sunkapur B.O,531085,BO,Delivery,VISAKHAPATANAM,ANDHRA PRADESH,17.5778548,82.6748908
Andhra Pradesh Circle,Visakhapatnam Region,Anakapalle Division,Jaggampeta B.O,531114,BO,Delivery,VISAKHAPATANAM,ANDHRA PRADESH,17.7532138,82.6990654
Andhra Pradesh Circle,Visakhapatnam Region,Anakapalle Division,Komaruvolu B.O,531114,BO,Delivery,VISAKHAPATANAM,ANDHRA PRADESH,17.7089810,82.6910020
Andhra Pradesh Circle,Visakhapatnam Region,Anakapalle Division,Konthalam B.O,531114,BO,Delivery,VISAKHAPATANAM,ANDHRA PRADESH,17.7617900,82.6429420
Andhra Pradesh Circle,Visakhapatnam Region,Anakapalle Division,Cheedipalem B.O,531087,BO,Delivery,VISAKHAPATANAM,ANDHRA PRADESH,17.6572965,82.2342731
Andhra Pradesh Circle,Visakhapatnam Region,Anakapalle Division,Kakarapadu B.O,531087,BO,Delivery,VISAKHAPATANAM,ANDHRA PRADESH,17.6415288,82.2346270
Andhra Pradesh Circle,Visakhapatnam Region,Anakapalle Division,Mampa B.O,531087,BO,Delivery,VISAKHAPATANAM,ANDHRA PRADESH,17.6554762,82.1663777
Andhra Pradesh Circle,Visakhapatnam Region,Anakapalle Division,Pathakota B.O,531077,BO,Delivery,VISAKHAPATANAM,ANDHRA PRADESH,18.1742766,82.8043283
Andhra Pradesh Circle,Visakhapatnam Region,Anakapalle Division,Sukuru B.O,531077,BO,Delivery,VISAKHAPATANAM,ANDHRA PRADESH,18.1418000,82.7300533
Andhra Pradesh Circle,Visakhapatnam Region,Anakapalle Division,Olda B.O,531077,BO,Delivery,VISAKHAPATANAM,ANDHRA PRADESH,18.1253220,82.8540190
Andhra Pradesh Circle,Visakhapatnam Region,Anakapalle Division,Chekumaddila B.O,531077,BO,Delivery,VISAKHAPATANAM,ANDHRA PRADESH,18.0616930,82.7827610
Andhra Pradesh Circle,Visakhapatnam Region,Anakapalle Division,Rapa B.O,531077,BO,Delivery,VISAKHAPATANAM,ANDHRA PRADESH,18.1348680,82.8091130
Andhra Pradesh Circle,Visakhapatnam Region,Anakapalle Division,Ganneruputtu B.O,531077,BO,Delivery,VISAKHAPATANAM,ANDHRA PRADESH,18.0452780,82.5803300
Andhra Pradesh Circle,Visakhapatnam Region,Anakapalle Division,K Mallampeta B.O,531084,BO,Delivery,VISAKHAPATANAM,ANDHRA PRADESH,17.6859090,82.3726990
Andhra Pradesh Circle,Visakhapatnam Region,Anakapalle Division,Kinaparthi B.O,531084,BO,Delivery,VISAKHAPATANAM,ANDHRA PRADESH,17.7044600,82.4067833
Andhra Pradesh Circle,Visakhapatnam Region,Anakapalle Division,Marrivada B.O,531087,BO,Delivery,VISAKHAPATANAM,ANDHRA PRADESH,17.6850836,82.2504384
Andhra Pradesh Circle,Visakhapatnam Region,Anakapalle Division,Downuru B.O,531118,BO,Delivery,VISAKHAPATANAM,ANDHRA PRADESH,17.7669636,82.5360711
Andhra Pradesh Circle,Visakhapatnam Region,Anakapalle Division,Gondipakalau B.O,531118,BO,Delivery,VISAKHAPATANAM,ANDHRA PRADESH,17.8056633,82.4706525
Andhra Pradesh Circle,Visakhapatnam Region,Anakapalle Division,Gundupala B.O,531118,BO,Delivery,VISAKHAPATANAM,ANDHRA PRADESH,17.6691997,82.5821849
Andhra Pradesh Circle,Visakhapatnam Region,Anakapalle Division,Kusarlapudi B.O,531118,BO,Delivery,VISAKHAPATANAM,ANDHRA PRADESH,17.6698781,82.6920105
Andhra Pradesh Circle,Visakhapatnam Region,Anakapalle Division,M K Patnam B.O,531118,BO,Delivery,VISAKHAPATANAM,ANDHRA PRADESH,17.7495000,82.5863570
Andhra Pradesh Circle,Visakhapatnam Region,Anakapalle Division,Pedda Boddepalli B.O,531118,BO,Non Delivery,VISAKHAPATANAM,ANDHRA PRADESH,17.6594695,82.6279331
Andhra Pradesh Circle,Visakhapatnam Region,Anakapalle Division,Vaddipa B.O,531118,BO,Delivery,VISAKHAPATANAM,ANDHRA PRADESH,17.7455220,82.6172021
Andhra Pradesh Circle,Visakhapatnam Region,Anakapalle Division,A Veeranarayanam B.O,531027,BO,Delivery,VISAKHAPATANAM,ANDHRA PRADESH,17.8503231,82.7141812
Andhra Pradesh Circle,Visakhapatnam Region,Anakapalle Division,Devapuram B.O,531027,BO,Delivery,VISAKHAPATANAM,ANDHRA PRADESH,17.9372000,82.7893640
Andhra Pradesh Circle,Visakhapatnam Region,Anakapalle Division,Gadirai B.O,531027,BO,Delivery,VISAKHAPATANAM,ANDHRA PRADESH,17.8664537,82.7905901
Andhra Pradesh Circle,Visakhapatnam Region,Anakapalle Division,Satyavaram B.O,531027,BO,Delivery,VISAKHAPATANAM,ANDHRA PRADESH,17.8787934,82.7881501
Andhra Pradesh Circle,Visakhapatnam Region,Anakapalle Division,Vommali Jagannadhapuram B.O,531027,BO,Delivery,VISAKHAPATANAM,ANDHRA PRADESH,17.8487483,82.7717435
Andhra Pradesh Circle,Visakhapatnam Region,Anakapalle Division,L Ponnavolu B.O,531027,BO,Delivery,VISAKHAPATANAM,ANDHRA PRADESH,17.8622470,82.7320170
Andhra Pradesh Circle,Visakhapatnam Region,Anakapalle Division,Jampena B.O,531027,BO,Delivery,VISAKHAPATANAM,ANDHRA PRADESH,17.8530670,82.8021140
Andhra Pradesh Circle,Visakhapatnam Region,Anakapalle Division,Mallavaram B.O,531113,BO,Delivery,VISAKHAPATANAM,ANDHRA PRADESH,17.6129525,82.6694805
Andhra Pradesh Circle,Visakhapatnam Region,Anakapalle Division,Pydipala B.O,531113,BO,Delivery,VISAKHAPATANAM,ANDHRA PRADESH,17.6372965,82.7157081
Andhra Pradesh Circle,Visakhapatnam Region,Anakapalle Division,Adakula B.O,531115,BO,Delivery,VISAKHAPATANAM,ANDHRA PRADESH,17.5885910,82.3424760
Andhra Pradesh Circle,Visakhapatnam Region,Anakapalle Division,Dharagangavaram B.O,531115,BO,Delivery,VISAKHAPATANAM,ANDHRA PRADESH,17.5895660,82.4944500
Andhra Pradesh Circle,Visakhapatnam Region,Anakapalle Division,Gummadigonda B.O,531115,BO,Delivery,VISAKHAPATANAM,ANDHRA PRADESH,17.5672821,82.4863216
Andhra Pradesh Circle,Visakhapatnam Region,Anakapalle Division,T R Project B.O,531115,BO,Delivery,VISAKHAPATANAM,ANDHRA PRADESH,17.6145130,82.4664800
Andhra Pradesh Circle,Visakhapatnam Region,Anakapalle Division,Y B Agraharam B.O,531115,BO,Delivery,VISAKHAPATANAM,ANDHRA PRADESH,17.4902518,82.4513554
Andhra Pradesh Circle,Visakhapatnam Region,Anakapalle Division,Chintalaveedhi B.O,531024,BO,Delivery,VISAKHAPATANAM,ANDHRA PRADESH,18.1087591,82.6737302
Andhra Pradesh Circle,Visakhapatnam Region,Anakapalle Division,Iradapalle B.O,531024,BO,Delivery,VISAKHAPATANAM,ANDHRA PRADESH,18.0832420,82.6072165
Andhra Pradesh Circle,Visakhapatnam Region,Anakapalle Division,Salugu B.O,531024,BO,Delivery,VISAKHAPATANAM,ANDHRA PRADESH,17.9981230,82.7909240
Andhra Pradesh Circle,Visakhapatnam Region,Anakapalle Division,Kinchuru B.O,531024,BO,Delivery,VISAKHAPATANAM,ANDHRA PRADESH,18.1073780,82.5903170
Andhra Pradesh Circle,Visakhapatnam Region,Anakapalle Division,Aradakota B.O,531040,BO,Delivery,VISAKHAPATANAM,ANDHRA PRADESH,18.2570400,82.6004866
Andhra Pradesh Circle,Visakhapatnam Region,Anakapalle Division,Pedagaruvu B.O,531077,BO,Delivery,VISAKHAPATANAM,ANDHRA PRADESH,18.1803000,82.7467616
Andhra Pradesh Circle,Visakhapatnam Region,Anakapalle Division,Tadigiri B.O,531077,BO,Delivery,VISAKHAPATANAM,ANDHRA PRADESH,18.1796483,82.7093583
Andhra Pradesh Circle,Visakhapatnam Region,Anakapalle Division,Jarrakonda B.O,531077,BO,Delivery,VISAKHAPATANAM,ANDHRA PRADESH,18.0619640,82.8221820
Andhra Pradesh Circle,Visakhapatnam Region,Anakapalle Division,Andiba B.O,531077,BO,Delivery,VISAKHAPATANAM,ANDHRA PRADESH,18.0611440,82.7662430
Andhra Pradesh Circle,Visakhapatnam Region,Anakapalle Division,Matyapuram B.O,531077,BO,Delivery,VISAKHAPATANAM,ANDHRA PRADESH,18.1508940,82.6928920
Andhra Pradesh Circle,Visakhapatnam Region,Anakapalle Division,Jogempeta B.O,531084,BO,Delivery,VISAKHAPATANAM,ANDHRA PRADESH,17.6753633,82.4772900
Andhra Pradesh Circle,Visakhapatnam Region,Anakapalle Division,Kantaram B.O,531084,BO,Delivery,VISAKHAPATANAM,ANDHRA PRADESH,17.6067466,82.3800683
Andhra Pradesh Circle,Visakhapatnam Region,Anakapalle Division,Kommika B.O,531084,BO,Delivery,VISAKHAPATANAM,ANDHRA PRADESH,17.6519416,82.3714133
Andhra Pradesh Circle,Visakhapatnam Region,Anakapalle Division,Pathamallmpeta B.O,531084,BO,Delivery,VISAKHAPATANAM,ANDHRA PRADESH,17.7027530,82.2996140
Andhra Pradesh Circle,Visakhapatnam Region,Anakapalle Division,Balighattam B.O,531118,BO,Delivery,VISAKHAPATANAM,ANDHRA PRADESH,17.6501040,82.6064690
Andhra Pradesh Circle,Visakhapatnam Region,Anakapalle Division,Cheedigummala B.O,531118,BO,Delivery,VISAKHAPATANAM,ANDHRA PRADESH,17.6871388,82.5734318
Andhra Pradesh Circle,Visakhapatnam Region,Anakapalle Division,Dharnasagaram B.O,531118,BO,Delivery,VISAKHAPATANAM,ANDHRA PRADESH,17.6287040,82.6240330
Andhra Pradesh Circle,Visakhapatnam Region,Anakapalle Division,Gurandarapalem B.O,531118,BO,Delivery,VISAKHAPATANAM,ANDHRA PRADESH,17.6976594,82.6188145
Andhra Pradesh Circle,Visakhapatnam Region,Anakapalle Division,Lammasingi B.O,531118,BO,Delivery,VISAKHAPATANAM,ANDHRA PRADESH,17.8156300,82.4927820
Andhra Pradesh Circle,Visakhapatnam Region,Anakapalle Division,Nindugonda B.O,531118,BO,Delivery,VISAKHAPATANAM,ANDHRA PRADESH,17.6986100,82.6441030
Andhra Pradesh Circle,Visakhapatnam Region,Anakapalle Division,Rajupakalu B.O,531118,BO,Delivery,VISAKHAPATANAM,ANDHRA PRADESH,17.8241509,82.4710791
Andhra Pradesh Circle,Visakhapatnam Region,Anakapalle Division,Tajangi B.O,531118,BO,Delivery,VISAKHAPATANAM,ANDHRA PRADESH,17.8532720,82.4927946
Andhra Pradesh Circle,Visakhapatnam Region,Anakapalle Division,Y G Peta B.O,531118,BO,Delivery,VISAKHAPATANAM,ANDHRA PRADESH,17.7344125,82.5809488
Andhra Pradesh Circle,Visakhapatnam Region,Anakapalle Division,D Gottivada B.O,531027,BO,Delivery,VISAKHAPATANAM,ANDHRA PRADESH,17.8873884,82.7791383
Andhra Pradesh Circle,Visakhapatnam Region,Anakapalle Division,Jalampalli B.O,531027,BO,Delivery,VISAKHAPATANAM,ANDHRA PRADESH,17.8619760,17.8619760
Andhra Pradesh Circle,Visakhapatnam Region,Anakapalle Division,Tatiparthi B.O,531027,BO,Delivery,VISAKHAPATANAM,ANDHRA PRADESH,17.9327717,82.7667288
Andhra Pradesh Circle,Visakhapatnam Region,Anakapalle Division,Pongalipaka B.O,531027,BO,Delivery,VISAKHAPATANAM,ANDHRA PRADESH,17.8439810,82.7158300
Andhra Pradesh Circle,Visakhapatnam Region,Anakapalle Division,Kavagunta B.O,531027,BO,Delivery,VISAKHAPATANAM,ANDHRA PRADESH,17.8342080,82.7697710
Andhra Pradesh Circle,Visakhapatnam Region,Anakapalle Division,Kondala Agraharam B.O,531113,BO,Delivery,VISAKHAPATANAM,ANDHRA PRADESH,17.6273507,82.7021223
Andhra Pradesh Circle,Visakhapatnam Region,Anakapalle Division,P P Agraharam B.O,531113,BO,Delivery,VISAKHAPATANAM,ANDHRA PRADESH,17.5905370,82.7050370
Andhra Pradesh Circle,Visakhapatnam Region,Anakapalle Division,E D Peta B.O,531115,BO,Delivery,VISAKHAPATANAM,ANDHRA PRADESH,17.5825882,82.5478421
Andhra Pradesh Circle,Visakhapatnam Region,Anakapalle Division,Manyapuratla B.O,531115,BO,Delivery,VISAKHAPATANAM,ANDHRA PRADESH,17.5280133,82.5108566
Andhra Pradesh Circle,Visakhapatnam Region,Anakapalle Division,Vedurupalle B.O,531115,BO,Delivery,VISAKHAPATANAM,ANDHRA PRADESH,17.5636462,82.4562950
Andhra Pradesh Circle,Visakhapatnam Region,Anakapalle Division,Dokuluru B.O,531024,BO,Delivery,VISAKHAPATANAM,ANDHRA PRADESH,18.0834468,82.6223279
Andhra Pradesh Circle,Visakhapatnam Region,Anakapalle Division,Gondeli B.O,531024,BO,Delivery,VISAKHAPATANAM,ANDHRA PRADESH,18.1027630,82.5824287
Andhra Pradesh Circle,Visakhapatnam Region,Anakapalle Division,Vantlamamidi B.O,531024,BO,Delivery,VISAKHAPATANAM,ANDHRA PRADESH,17.9934820,82.7328010
Andhra Pradesh Circle,Visakhapatnam Region,Anakapalle Division,Thumpada B.O,531024,BO,Delivery,VISAKHAPATANAM,ANDHRA PRADESH,18.0732490,82.6267340
Andhra Pradesh Circle,Visakhapatnam Region,Anakapalle Division,Babusala B.O,531040,BO,Delivery,VISAKHAPATANAM,ANDHRA PRADESH,18.3073366,82.4310766
Andhra Pradesh Circle,Visakhapatnam Region,Anakapalle Division,Darela B.O,531040,BO,Delivery,VISAKHAPATANAM,ANDHRA PRADESH,18.3261000,82.5704116
Andhra Pradesh Circle,Visakhapatnam Region,Anakapalle Division,Karimukhput B.O,531040,BO,Delivery,VISAKHAPATANAM,ANDHRA PRADESH,18.3323083,82.4891750
Andhra Pradesh Circle,Visakhapatnam Region,Anakapalle Division,Pedaguda B.O,531040,BO,Delivery,VISAKHAPATANAM,ANDHRA PRADESH,18.3569390,82.5775661
Andhra Pradesh Circle,Visakhapatnam Region,Anakapalle Division,Seekari B.O,531040,BO,Delivery,VISAKHAPATANAM,ANDHRA PRADESH,18.2555700,82.5733166
Andhra Pradesh Circle,Visakhapatnam Region,Anakapalle Division,Vanabhasingi B.O,531040,BO,Delivery,VISAKHAPATANAM,ANDHRA PRADESH,18.3383350,82.5437383
Andhra Pradesh Circle,Visakhapatnam Region,Anakapalle Division,Ginnelakota B.O,531040,BO,Delivery,VISAKHAPATANAM,ANDHRA PRADESH,18.1768630,82.4253840
Andhra Pradesh Circle,Visakhapatnam Region,Anakapalle Division,Jarjula B.O,531040,BO,Delivery,VISAKHAPATANAM,ANDHRA PRADESH,18.3386610,82.4747690
Andhra Pradesh Circle,Visakhapatnam Region,Anakapalle Division,Kumada B.O,531040,BO,Delivery,VISAKHAPATANAM,ANDHRA PRADESH,18.2675890,82.4357830
Andhra Pradesh Circle,Visakhapatnam Region,Anakapalle Division,Bungaput B.O,531040,BO,Delivery,VISAKHAPATANAM,ANDHRA PRADESH,18.3258740,82.3444580
Andhra Pradesh Circle,Visakhapatnam Region,Anakapalle Division,Geddapalem B.O,531083,BO,Delivery,VISAKHAPATANAM,ANDHRA PRADESH,NA,NA
Andhra Pradesh Circle,Visakhapatnam Region,Anakapalle Division,Koruprolu B.O,531083,BO,Delivery,VISAKHAPATANAM,ANDHRA PRADESH,17.4739452,82.7758667
Andhra Pradesh Circle,Visakhapatnam Region,Anakapalle Division,Gudivada Veeravalli B.O,531025,BO,Delivery,VISAKHAPATANAM,ANDHRA PRADESH,17.7804949,82.8170383
Andhra Pradesh Circle,Visakhapatnam Region,Anakapalle Division,Thotakurapalem B.O,531025,BO,Delivery,VISAKHAPATANAM,ANDHRA PRADESH,17.6881033,82.8054716
Andhra Pradesh Circle,Visakhapatnam Region,Anakapalle Division,Lakkavarapupeta B.O,531133,BO,Delivery,VISAKHAPATANAM,ANDHRA PRADESH,17.8028430,82.2453310
Andhra Pradesh Circle,Visakhapatnam Region,Anakapalle Division,Duppulavada B.O,531105,BO,Delivery,VISAKHAPATANAM,ANDHRA PRADESH,18.0218367,82.0900765
Andhra Pradesh Circle,Visakhapatnam Region,Anakapalle Division,Dibbapalem B.O,531026,BO,Delivery,VISAKHAPATANAM,ANDHRA PRADESH,17.8797767,82.8813869
Andhra Pradesh Circle,Visakhapatnam Region,Anakapalle Division,Kondupalem Agraharam B.O,531026,BO,Delivery,VISAKHAPATANAM,ANDHRA PRADESH,17.7805075,82.8549903
Andhra Pradesh Circle,Visakhapatnam Region,Anakapalle Division,Turakalapudi B.O,531026,BO,Delivery,VISAKHAPATANAM,ANDHRA PRADESH,17.7344680,82.8594226
Andhra Pradesh Circle,Visakhapatnam Region,Anakapalle Division,Kondempudi B.O,531026,BO,Delivery,VISAKHAPATANAM,ANDHRA PRADESH,17.7832040,82.8236680
Andhra Pradesh Circle,Visakhapatnam Region,Anakapalle Division,Munchingput B.O,531040,BO,Delivery,VISAKHAPATANAM,ANDHRA PRADESH,18.3664000,82.5069383
Andhra Pradesh Circle,Visakhapatnam Region,Anakapalle Division,Parreda B.O,531040,BO,Delivery,VISAKHAPATANAM,ANDHRA PRADESH,18.2832345,82.5014823
Andhra Pradesh Circle,Visakhapatnam Region,Anakapalle Division,Rudakota B.O,531040,BO,Delivery,VISAKHAPATANAM,ANDHRA PRADESH,18.2914433,82.4632716
Andhra Pradesh Circle,Visakhapatnam Region,Visakhapatnam Division,A U Engg College B.O,530003,BO,Non Delivery,VISAKHAPATANAM,ANDHRA PRADESH,17.7288160,83.3200850
Andhra Pradesh Circle,Visakhapatnam Region,Visakhapatnam Division,Singannabanda B.O,531162,BO,Delivery,VISAKHAPATANAM,ANDHRA PRADESH,17.9280670,83.4243300
Andhra Pradesh Circle,Visakhapatnam Region,Visakhapatnam Division,Nadupuru B.O,530044,BO,Non Delivery,VISAKHAPATANAM,ANDHRA PRADESH,17.6714110,83.1983900
Andhra Pradesh Circle,Visakhapatnam Region,Visakhapatnam Division,Saripalli B.O,531173,BO,Delivery,VISAKHAPATANAM,ANDHRA PRADESH,17.8393750,83.2010690
Andhra Pradesh Circle,Visakhapatnam Region,Visakhapatnam Division,Chinamushidiwada B.O,530051,BO,Delivery,VISAKHAPATANAM,ANDHRA PRADESH,17.8023760,83.2048140
Andhra Pradesh Circle,Visakhapatnam Region,Visakhapatnam Division,Gudilova B.O,531173,BO,Delivery,VISAKHAPATANAM,ANDHRA PRADESH,17.8688920,83.3308420
Andhra Pradesh Circle,Visakhapatnam Region,Visakhapatnam Division,Sontyam B.O,531173,BO,Delivery,VISAKHAPATANAM,ANDHRA PRADESH,17.8677930,83.2987580
Andhra Pradesh Circle,Visakhapatnam Region,Visakhapatnam Division,Chinnapuram B.O,531219,BO,Delivery,VISAKHAPATANAM,ANDHRA PRADESH,18.0484730,83.3669180
Andhra Pradesh Circle,Visakhapatnam Region,Visakhapatnam Division,Gottupalli B.O,531219,BO,Delivery,VISAKHAPATANAM,ANDHRA PRADESH,18.0076930,83.3386680
Andhra Pradesh Circle,Visakhapatnam Region,Visakhapatnam Division,T.V.Agraharam B.O,531219,BO,Delivery,VISAKHAPATANAM,ANDHRA PRADESH,18.0510510,83.3491510
Andhra Pradesh Circle,Visakhapatnam Region,Visakhapatnam Division,Simhachalam Hills B.O,530028,BO,Non Delivery,VISAKHAPATANAM,ANDHRA PRADESH,17.7663800,83.2506270
Andhra Pradesh Circle,Visakhapatnam Region,Visakhapatnam Division,Pakeertekya B.O,530049,BO,Delivery,VISAKHAPATANAM,ANDHRA PRADESH,17.7083020,83.1526790
Andhra Pradesh Circle,Visakhapatnam Region,Visakhapatnam Division,Islampeta B.O,530031,BO,Delivery,VISAKHAPATANAM,ANDHRA PRADESH,17.5942090,83.1558150
Andhra Pradesh Circle,Visakhapatnam Region,Anakapalle Division,Jamiguda B.O,531040,BO,Delivery,VISAKHAPATANAM,ANDHRA PRADESH,18.2021160,82.3990480
Andhra Pradesh Circle,Visakhapatnam Region,Anakapalle Division,Laxmipuram B.O,531040,BO,Delivery,VISAKHAPATANAM,ANDHRA PRADESH,18.2666240,82.5286940
Andhra Pradesh Circle,Visakhapatnam Region,Anakapalle Division,Bondapalli B.O,531040,BO,Delivery,VISAKHAPATANAM,ANDHRA PRADESH,18.2345480,82.4555640
Andhra Pradesh Circle,Visakhapatnam Region,Anakapalle Division,Rngabayalu B.O,531040,BO,Delivery,VISAKHAPATANAM,ANDHRA PRADESH,18.4344520,82.4226530
Andhra Pradesh Circle,Visakhapatnam Region,Anakapalle Division,Chinnagummuluru B.O,531083,BO,Delivery,VISAKHAPATANAM,ANDHRA PRADESH,17.4616492,82.7266056
Andhra Pradesh Circle,Visakhapatnam Region,Anakapalle Division,Galikonda B.O,531133,BO,Delivery,VISAKHAPATANAM,ANDHRA PRADESH,17.9007820,82.0965410
Andhra Pradesh Circle,Visakhapatnam Region,Anakapalle Division,Pedavalasa B.O,531133,BO,Delivery,VISAKHAPATANAM,ANDHRA PRADESH,17.7836299,82.2699540
Andhra Pradesh Circle,Visakhapatnam Region,Anakapalle Division,Sankada B.O,531133,BO,Delivery,VISAKHAPATANAM,ANDHRA PRADESH,17.8265948,82.2887429
Andhra Pradesh Circle,Visakhapatnam Region,Anakapalle Division,Saparla B.O,531133,BO,Delivery,VISAKHAPATANAM,ANDHRA PRADESH,17.9359400,82.1475650
Andhra Pradesh Circle,Visakhapatnam Region,Anakapalle Division,Darakonda B.O,531105,BO,Delivery,VISAKHAPATANAM,ANDHRA PRADESH,17.9969510,82.1247770
Andhra Pradesh Circle,Visakhapatnam Region,Anakapalle Division,Butchiyyapeta B.O,531026,BO,Delivery,VISAKHAPATANAM,ANDHRA PRADESH,17.7975943,82.8770072
Andhra Pradesh Circle,Visakhapatnam Region,Anakapalle Division,Dibbidi B.O,531026,BO,Delivery,VISAKHAPATANAM,ANDHRA PRADESH,17.7977837,82.8790054
Andhra Pradesh Circle,Visakhapatnam Region,Anakapalle Division,Lopudi B.O,531026,BO,Delivery,VISAKHAPATANAM,ANDHRA PRADESH,17.8221969,82.8469404
Andhra Pradesh Circle,Visakhapatnam Region,Anakapalle Division,Pottidorapalem B.O,531026,BO,Delivery,VISAKHAPATANAM,ANDHRA PRADESH,17.8131284,82.8309672
Andhra Pradesh Circle,Visakhapatnam Region,Anakapalle Division,Veeravalli Agraharam B.O,531026,BO,Delivery,VISAKHAPATANAM,ANDHRA PRADESH,17.8540673,82.8555934
Andhra Pradesh Circle,Visakhapatnam Region,Anakapalle Division,Mukundapuram B.O,531026,BO,Delivery,VISAKHAPATANAM,ANDHRA PRADESH,17.8696930,82.8959810
Andhra Pradesh Circle,Visakhapatnam Region,Anakapalle Division,P Bhimavaram BO,531026,BO,Delivery,VISAKHAPATANAM,ANDHRA PRADESH,17.7898800,82.8452150
Andhra Pradesh Circle,Visakhapatnam Region,Anakapalle Division,Gopalapatnam B.O,531127,BO,Delivery,VISAKHAPATANAM,ANDHRA PRADESH,17.3294893,82.6110203
Andhra Pradesh Circle,Visakhapatnam Region,Visakhapatnam Division,Arilova B.O,530040,BO,Delivery,VISAKHAPATANAM,ANDHRA PRADESH,17.7666500,83.3134650
Andhra Pradesh Circle,Visakhapatnam Region,Visakhapatnam Division,Kommadi B.O,530048,BO,Delivery,VISAKHAPATANAM,ANDHRA PRADESH,17.8300530,83.3368560
Andhra Pradesh Circle,Visakhapatnam Region,Visakhapatnam Division,Tunglam B.O,530012,BO,Delivery,VISAKHAPATANAM,ANDHRA PRADESH,17.7064660,83.1903540
Andhra Pradesh Circle,Visakhapatnam Region,Visakhapatnam Division,Mindi B.O,530012,BO,Delivery,VISAKHAPATANAM,ANDHRA PRADESH,17.7042610,83.2117820
Andhra Pradesh Circle,Visakhapatnam Region,Visakhapatnam Division,Chepaluppada B.O,531163,BO,Delivery,VISAKHAPATANAM,ANDHRA PRADESH,17.8509020,83.4127610
Andhra Pradesh Circle,Visakhapatnam Region,Visakhapatnam Division,INS Kalinga B.O,531163,BO,Delivery,VISAKHAPATANAM,ANDHRA PRADESH,17.8628600,83.4136530
Andhra Pradesh Circle,Visakhapatnam Region,Visakhapatnam Division,Kothaparadesipalem B.O,531163,BO,Delivery,VISAKHAPATANAM,ANDHRA PRADESH,17.8575230,83.3665280
Andhra Pradesh Circle,Visakhapatnam Region,Visakhapatnam Division,Rayapalem B.O,531163,BO,Delivery,VISAKHAPATANAM,ANDHRA PRADESH,17.7303920,83.2867220
Andhra Pradesh Circle,Visakhapatnam Region,Visakhapatnam Division,Annavaram B.O,531162,BO,Delivery,VISAKHAPATANAM,ANDHRA PRADESH,17.9362930,83.4936900
Andhra Pradesh Circle,Visakhapatnam Region,Visakhapatnam Division,Boni B.O,531162,BO,Delivery,VISAKHAPATANAM,ANDHRA PRADESH,17.9639770,83.3425360
Andhra Pradesh Circle,Visakhapatnam Region,Visakhapatnam Division,Korada B.O,531162,BO,Delivery,VISAKHAPATANAM,ANDHRA PRADESH,17.9976850,83.3799410
Andhra Pradesh Circle,Visakhapatnam Region,Visakhapatnam Division,Marikavalasa B.O,530048,BO,Delivery,VISAKHAPATANAM,ANDHRA PRADESH,17.8286360,83.3702380
Andhra Pradesh Circle,Visakhapatnam Region,Visakhapatnam Division,Sheelanagar B.O,530012,BO,Non Delivery,VISAKHAPATANAM,ANDHRA PRADESH,17.7155770,83.1983900
Andhra Pradesh Circle,Visakhapatnam Region,Visakhapatnam Division,Visweswarayanagar B.O,530012,BO,Delivery,VISAKHAPATANAM,ANDHRA PRADESH,17.7044170,83.2005200
Andhra Pradesh Circle,Visakhapatnam Region,Visakhapatnam Division,J.V.Agraharam B.O,531163,BO,Delivery,VISAKHAPATANAM,ANDHRA PRADESH,17.8756270,83.3989690
Andhra Pradesh Circle,Visakhapatnam Region,Visakhapatnam Division,Nerellavalasa B.O,531163,BO,Delivery,VISAKHAPATANAM,ANDHRA PRADESH,18.0554330,83.3548950
Andhra Pradesh Circle,Visakhapatnam Region,Visakhapatnam Division,Peddipalem B.O,531163,BO,Delivery,VISAKHAPATANAM,ANDHRA PRADESH,17.9084740,83.4006380
Andhra Pradesh Circle,Visakhapatnam Region,Visakhapatnam Division,Majjivalasa B.O,531162,BO,Delivery,VISAKHAPATANAM,ANDHRA PRADESH,17.9487120,83.3919590
Andhra Pradesh Circle,Visakhapatnam Region,Visakhapatnam Division,Revidi B.O,531162,BO,Delivery,VISAKHAPATANAM,ANDHRA PRADESH,17.9653840,83.3729290
Andhra Pradesh Circle,Visakhapatnam Region,Vizianagaram Division,Pathavalasa B.O,535183,BO,Delivery,VISAKHAPATANAM,ANDHRA PRADESH,17.8953900,83.1980130
Andhra Pradesh Circle,Visakhapatnam Region,Vizianagaram Division,Tangudubilli B.O,535183,BO,Delivery,VISAKHAPATANAM,ANDHRA PRADESH,18.1541500,83.5146840
Andhra Pradesh Circle,Visakhapatnam Region,Vizianagaram Division,Gummakota B.O,535273,BO,Delivery,VISAKHAPATANAM,ANDHRA PRADESH,18.3557900,83.2285590
Andhra Pradesh Circle,Visakhapatnam Region,Vizianagaram Division,Muliaguda B.O,535145,BO,Delivery,VISAKHAPATANAM,ANDHRA PRADESH,19.4922250,82.2895570
Andhra Pradesh Circle,Visakhapatnam Region,Vizianagaram Division,Valasi B.O,535145,BO,Delivery,VISAKHAPATANAM,ANDHRA PRADESH,18.1292120,82.9212460
Andhra Pradesh Circle,Visakhapatnam Region,Vizianagaram Division,Tokuru B.O,535145,BO,Delivery,VISAKHAPATANAM,ANDHRA PRADESH,18.2377090,83.0260670
Andhra Pradesh Circle,Visakhapatnam Region,Vizianagaram Division,Garugubilli B.O,535273,BO,Delivery,VISAKHAPATANAM,ANDHRA PRADESH,18.7118970,83.4930240
Andhra Pradesh Circle,Visakhapatnam Region,Vizianagaram Division,Pedabidda B.O,535145,BO,Delivery,VISAKHAPATANAM,ANDHRA PRADESH,18.1537500,83.0079370
Andhra Pradesh Circle,Visakhapatnam Region,Vizianagaram Division,Tyda B.O,535145,BO,Delivery,VISAKHAPATANAM,ANDHRA PRADESH,18.2106200,83.0636360
Andhra Pradesh Circle,Visakhapatnam Region,Anakapalle Division,Idatam B.O,531127,BO,Delivery,VISAKHAPATANAM,ANDHRA PRADESH,17.2837152,82.5338188
Andhra Pradesh Circle,Visakhapatnam Region,Anakapalle Division,Kandipudi B.O,531127,BO,Delivery,VISAKHAPATANAM,ANDHRA PRADESH,17.2967692,82.5464826
Andhra Pradesh Circle,Visakhapatnam Region,Anakapalle Division,Chintagatla B.O,531035,BO,Delivery,VISAKHAPATANAM,ANDHRA PRADESH,17.7823927,83.1630503
Andhra Pradesh Circle,Visakhapatnam Region,Anakapalle Division,Gullepalli B.O,531035,BO,Delivery,VISAKHAPATANAM,ANDHRA PRADESH,17.8337012,83.1399577
Andhra Pradesh Circle,Visakhapatnam Region,Anakapalle Division,Petasudipuram B.O,531055,BO,Delivery,VISAKHAPATANAM,ANDHRA PRADESH,17.4930719,82.8382041
Andhra Pradesh Circle,Visakhapatnam Region,Anakapalle Division,Turangalapalem B.O,531055,BO,Delivery,VISAKHAPATANAM,ANDHRA PRADESH,17.5691919,82.8645397
Andhra Pradesh Circle,Visakhapatnam Region,Anakapalle Division,Vemagiri B.O,531055,BO,Delivery,VISAKHAPATANAM,ANDHRA PRADESH,17.4889840,82.8297040
Andhra Pradesh Circle,Visakhapatnam Region,Anakapalle Division,Cherlopalem B.O,531055,BO,Delivery,VISAKHAPATANAM,ANDHRA PRADESH,17.5565150,82.5807910
Andhra Pradesh Circle,Visakhapatnam Region,Anakapalle Division,Korukonda B.O,531111,BO,Delivery,VISAKHAPATANAM,ANDHRA PRADESH,18.0088820,82.3637290
Andhra Pradesh Circle,Visakhapatnam Region,Anakapalle Division,Kothapalem B.O,531111,BO,Delivery,VISAKHAPATANAM,ANDHRA PRADESH,17.7756740,82.4220940
Andhra Pradesh Circle,Visakhapatnam Region,Anakapalle Division,Luthugedda Jn. B.O,531111,BO,Delivery,VISAKHAPATANAM,ANDHRA PRADESH,17.8562849,82.4353369
Andhra Pradesh Circle,Visakhapatnam Region,Anakapalle Division,Kudumusari B.O,531111,BO,Delivery,VISAKHAPATANAM,ANDHRA PRADESH,17.9916720,82.3085580
Andhra Pradesh Circle,Visakhapatnam Region,Anakapalle Division,Bakuru B.O,531077,BO,Delivery,VISAKHAPATANAM,ANDHRA PRADESH,18.1128300,82.7734650
Andhra Pradesh Circle,Visakhapatnam Region,Anakapalle Division,Galaganda B.O,531077,BO,Delivery,VISAKHAPATANAM,ANDHRA PRADESH,18.2017066,82.6374283
Andhra Pradesh Circle,Visakhapatnam Region,Anakapalle Division,Guda B.O,531077,BO,Delivery,VISAKHAPATANAM,ANDHRA PRADESH,18.1343583,82.6574683
Andhra Pradesh Circle,Visakhapatnam Region,Vizianagaram Division,Gumma B.O,535145,BO,Delivery,VISAKHAPATANAM,ANDHRA PRADESH,18.1291310,83.0093480
Andhra Pradesh Circle,Visakhapatnam Region,Vizianagaram Division,Longuparthi B.O,535145,BO,Delivery,VISAKHAPATANAM,ANDHRA PRADESH,18.1437330,82.9756930
Andhra Pradesh Circle,Visakhapatnam Region,Anakapalle Division,Uddandapuram B.O,531126,BO,Delivery,VISAKHAPATANAM,ANDHRA PRADESH,17.3891949,82.6416666
Andhra Pradesh Circle,Visakhapatnam Region,Anakapalle Division,Lingarajupalem B.O,531060,BO,Delivery,VISAKHAPATANAM,ANDHRA PRADESH,17.4433366,82.8110316
Andhra Pradesh Circle,Visakhapatnam Region,Anakapalle Division,Vommavaram B.O,531060,BO,Delivery,VISAKHAPATANAM,ANDHRA PRADESH,17.4577100,82.7801800
Andhra Pradesh Circle,Visakhapatnam Region,Anakapalle Division,Kumarapuram  B.O,531127,BO,Delivery,VISAKHAPATANAM,ANDHRA PRADESH,17.2754420,82.5613980
Andhra Pradesh Circle,Visakhapatnam Region,Anakapalle Division,Pentakota B.O,531127,BO,Delivery,VISAKHAPATANAM,ANDHRA PRADESH,17.3016408,82.6096216
Andhra Pradesh Circle,Visakhapatnam Region,Anakapalle Division,Venkatanagaram B.O,531127,BO,Delivery,VISAKHAPATANAM,ANDHRA PRADESH,17.2870660,82.5845579
Andhra Pradesh Circle,Visakhapatnam Region,Anakapalle Division,Anthakapalle B.O,531035,BO,Delivery,VISAKHAPATANAM,ANDHRA PRADESH,17.8141292,83.1219119
Andhra Pradesh Circle,Visakhapatnam Region,Anakapalle Division,Asakapalle B.O,531035,BO,Delivery,VISAKHAPATANAM,ANDHRA PRADESH,17.7690141,83.1171127
Andhra Pradesh Circle,Visakhapatnam Region,Anakapalle Division,Boduvalasa B.O,531035,BO,Delivery,VISAKHAPATANAM,ANDHRA PRADESH,17.8458102,83.1361920
Andhra Pradesh Circle,Visakhapatnam Region,Anakapalle Division,Tekkalipalem B.O,531035,BO,Delivery,VISAKHAPATANAM,ANDHRA PRADESH,17.8128140,83.0888267
Andhra Pradesh Circle,Visakhapatnam Region,Anakapalle Division,Gandhavaram B.O,531032,BO,Delivery,VISAKHAPATANAM,ANDHRA PRADESH,17.7728968,82.9879027
Andhra Pradesh Circle,Visakhapatnam Region,Anakapalle Division,Kuntsangi B.O,531032,BO,Delivery,VISAKHAPATANAM,ANDHRA PRADESH,17.7268040,82.9433440
Andhra Pradesh Circle,Visakhapatnam Region,Anakapalle Division,Maruturu B.O,531032,BO,Delivery,VISAKHAPATANAM,ANDHRA PRADESH,17.7318730,83.0156990
Andhra Pradesh Circle,Visakhapatnam Region,Anakapalle Division,Uderoo B.O,531032,BO,Delivery,VISAKHAPATANAM,ANDHRA PRADESH,17.7590950,82.9990480
Andhra Pradesh Circle,Visakhapatnam Region,Anakapalle Division,R Bheemavaram B.O,531032,BO,Delivery,VISAKHAPATANAM,ANDHRA PRADESH,17.6885230,82.8909790
Andhra Pradesh Circle,Visakhapatnam Region,Anakapalle Division,Ameena Sahebpeta B.O,531055,BO,Delivery,VISAKHAPATANAM,ANDHRA PRADESH,17.5858030,82.9041190
Andhra Pradesh Circle,Visakhapatnam Region,Anakapalle Division,Enugutuni B.O,531055,BO,Delivery,VISAKHAPATANAM,ANDHRA PRADESH,17.5678020,82.8775120
Andhra Pradesh Circle,Visakhapatnam Region,Anakapalle Division,Melupaka B.O,531055,BO,Delivery,VISAKHAPATANAM,ANDHRA PRADESH,17.6143306,82.9114118
Andhra Pradesh Circle,Visakhapatnam Region,Anakapalle Division,Pedapalli B.O,531055,BO,Delivery,VISAKHAPATANAM,ANDHRA PRADESH,17.5621550,82.8315070
Andhra Pradesh Circle,Visakhapatnam Region,Anakapalle Division,Regupalem B.O,531055,BO,Delivery,VISAKHAPATANAM,ANDHRA PRADESH,17.5098580,82.8037830
Andhra Pradesh Circle,Visakhapatnam Region,Anakapalle Division,Somavaram B.O,531055,BO,Delivery,VISAKHAPATANAM,ANDHRA PRADESH,17.5809750,82.8931330
Andhra Pradesh Circle,Visakhapatnam Region,Anakapalle Division,Bennavaram B.O,531111,BO,Delivery,VISAKHAPATANAM,ANDHRA PRADESH,17.9465059,82.4091861
Andhra Pradesh Circle,Visakhapatnam Region,Anakapalle Division,Chowdupalli B.O,531111,BO,Delivery,VISAKHAPATANAM,ANDHRA PRADESH,17.8539160,82.3586230
Andhra Pradesh Circle,Visakhapatnam Region,Anakapalle Division,Jerrala B.O,531111,BO,Delivery,VISAKHAPATANAM,ANDHRA PRADESH,17.9520620,82.3042490
Andhra Pradesh Circle,Visakhapatnam Region,Anakapalle Division,Thammingula B.O,531111,BO,Delivery,VISAKHAPATANAM,ANDHRA PRADESH,18.0228400,82.4192620
Andhra Pradesh Circle,Visakhapatnam Region,Anakapalle Division,Vangasara B.O,531111,BO,Delivery,VISAKHAPATANAM,ANDHRA PRADESH,17.8683480,82.4241540
Andhra Pradesh Circle,Visakhapatnam Region,Anakapalle Division,Bhimavaram B.O,531082,BO,Delivery,VISAKHAPATANAM,ANDHRA PRADESH,17.4723751,82.7375613
Andhra Pradesh Circle,Visakhapatnam Region,Anakapalle Division,Gammili B.O,531029,BO,Delivery,VISAKHAPATANAM,ANDHRA PRADESH,17.9321722,82.5301354
Andhra Pradesh Circle,Visakhapatnam Region,Anakapalle Division,Kuntharla B.O,531029,BO,Delivery,VISAKHAPATANAM,ANDHRA PRADESH,18.1316730,82.5119160
Andhra Pradesh Circle,Visakhapatnam Region,Anakapalle Division,Singarbha B.O,531029,BO,Delivery,VISAKHAPATANAM,ANDHRA PRADESH,18.0492820,82.4727340
Andhra Pradesh Circle,Visakhapatnam Region,Anakapalle Division,Vanthala B.O,531029,BO,Delivery,VISAKHAPATANAM,ANDHRA PRADESH,17.9849026,82.5986750
Andhra Pradesh Circle,Visakhapatnam Region,Anakapalle Division,Gulleli B.O,531029,BO,Delivery,VISAKHAPATANAM,ANDHRA PRADESH,18.4649630,82.1213260
Andhra Pradesh Circle,Visakhapatnam Region,Anakapalle Division,Kimudupalle B.O,531077,BO,Delivery,VISAKHAPATANAM,ANDHRA PRADESH,18.1657642,82.5529730
Andhra Pradesh Circle,Visakhapatnam Region,Anakapalle Division,Kotnapalle B.O,531077,BO,Delivery,VISAKHAPATANAM,ANDHRA PRADESH,18.1682520,82.7286820
Andhra Pradesh Circle,Visakhapatnam Region,Anakapalle Division,Sampathipuram B.O,531031,BO,Delivery,VISAKHAPATANAM,ANDHRA PRADESH,17.6842778,82.9528894
Andhra Pradesh Circle,Visakhapatnam Region,Anakapalle Division,Gavaravaram B.O,531075,BO,Delivery,VISAKHAPATANAM,ANDHRA PRADESH,17.8754800,82.9670233
Andhra Pradesh Circle,Visakhapatnam Region,Anakapalle Division,Vechalam B.O,531075,BO,Delivery,VISAKHAPATANAM,ANDHRA PRADESH,17.8651900,82.9742860
Andhra Pradesh Circle,Visakhapatnam Region,Anakapalle Division,Boyila Kinthada B.O,531075,BO,Delivery,VISAKHAPATANAM,ANDHRA PRADESH,17.4875480,82.3598650
Andhra Pradesh Circle,Visakhapatnam Region,Anakapalle Division,Mulakapalli B.O,531075,BO,Delivery,VISAKHAPATANAM,ANDHRA PRADESH,17.8471720,82.9635980
Andhra Pradesh Circle,Visakhapatnam Region,Anakapalle Division,Nagavaram B.O,531033,BO,Delivery,VISAKHAPATANAM,ANDHRA PRADESH,17.6049300,83.0261780
Andhra Pradesh Circle,Visakhapatnam Region,Anakapalle Division,Rajayyapeta B.O,531081,BO,Delivery,VISAKHAPATANAM,ANDHRA PRADESH,17.3599128,82.7133636
Andhra Pradesh Circle,Visakhapatnam Region,Anakapalle Division,Vedullapalem B.O,531081,BO,Delivery,VISAKHAPATANAM,ANDHRA PRADESH,17.4087899,82.6816382
Andhra Pradesh Circle,Visakhapatnam Region,Anakapalle Division,Ammulapalem B.O,531002,BO,Delivery,VISAKHAPATANAM,ANDHRA PRADESH,17.7602733,83.0707433
Andhra Pradesh Circle,Visakhapatnam Region,Anakapalle Division,Kondupalem B.O,531002,BO,Delivery,VISAKHAPATANAM,ANDHRA PRADESH,17.7316950,83.0280820
Andhra Pradesh Circle,Visakhapatnam Region,Anakapalle Division,Thotada B.O,531002,BO,Delivery,VISAKHAPATANAM,ANDHRA PRADESH,17.6570201,83.0225886
Andhra Pradesh Circle,Visakhapatnam Region,Anakapalle Division,Nunaparthi B.O,531020,BO,Delivery,VISAKHAPATANAM,ANDHRA PRADESH,17.5741860,83.0777526
Andhra Pradesh Circle,Visakhapatnam Region,Anakapalle Division,Venkatapathipalem B.O,531020,BO,Delivery,VISAKHAPATANAM,ANDHRA PRADESH,17.5464784,83.0815278
Andhra Pradesh Circle,Visakhapatnam Region,Anakapalle Division,Dopperla B.O,531021,BO,Delivery,VISAKHAPATANAM,ANDHRA PRADESH,17.5768327,83.0404800
Andhra Pradesh Circle,Visakhapatnam Region,Anakapalle Division,Payakarao Bonangi B.O,531021,BO,Delivery,VISAKHAPATANAM,ANDHRA PRADESH,17.5923010,83.0817700
Andhra Pradesh Circle,Visakhapatnam Region,Anakapalle Division,Godicherla B.O,531126,BO,Delivery,VISAKHAPATANAM,ANDHRA PRADESH,17.4437566,82.6594799
Andhra Pradesh Circle,Visakhapatnam Region,Anakapalle Division,Kannurupalem B.O,531031,BO,Delivery,VISAKHAPATANAM,ANDHRA PRADESH,17.6336451,82.8188358
Andhra Pradesh Circle,Visakhapatnam Region,Anakapalle Division,Vetazangalapalem B.O,531031,BO,Delivery,VISAKHAPATANAM,ANDHRA PRADESH,17.6984090,82.9461959
Andhra Pradesh Circle,Visakhapatnam Region,Anakapalle Division,Taruva Agraharam B.O,531075,BO,Delivery,VISAKHAPATANAM,ANDHRA PRADESH,17.9136720,82.9667500
Andhra Pradesh Circle,Visakhapatnam Region,Anakapalle Division,Vakapalle B.O,531075,BO,Delivery,VISAKHAPATANAM,ANDHRA PRADESH,17.9344716,82.9510666
Andhra Pradesh Circle,Visakhapatnam Region,Anakapalle Division,Timiram B.O,531075,BO,Delivery,VISAKHAPATANAM,ANDHRA PRADESH,17.9242720,82.9627050
Andhra Pradesh Circle,Visakhapatnam Region,Anakapalle Division,Patipalle B.O,531033,BO,Delivery,VISAKHAPATANAM,ANDHRA PRADESH,17.6330610,83.0151410
Andhra Pradesh Circle,Visakhapatnam Region,Anakapalle Division,Yerravaram B.O,531033,BO,Delivery,VISAKHAPATANAM,ANDHRA PRADESH,17.5992162,82.9624852
Andhra Pradesh Circle,Visakhapatnam Region,Anakapalle Division,Bodugullam Agraharam B.O,531081,BO,Delivery,VISAKHAPATANAM,ANDHRA PRADESH,17.4319859,82.7012489
Andhra Pradesh Circle,Visakhapatnam Region,Anakapalle Division,Chandanada B.O,531081,BO,Delivery,VISAKHAPATANAM,ANDHRA PRADESH,17.3731066,82.7102654
Andhra Pradesh Circle,Visakhapatnam Region,Anakapalle Division,Pedateenarla B.O,531081,BO,Delivery,VISAKHAPATANAM,ANDHRA PRADESH,17.3839854,82.7528325
Andhra Pradesh Circle,Visakhapatnam Region,Anakapalle Division,Upamaka Agraharam B.O,531081,BO,Non Delivery,VISAKHAPATANAM,ANDHRA PRADESH,17.3988614,82.7218282
Andhra Pradesh Circle,Visakhapatnam Region,Anakapalle Division,Batlapudi B.O,531002,BO,Delivery,VISAKHAPATANAM,ANDHRA PRADESH,17.6913029,83.0342699
Andhra Pradesh Circle,Visakhapatnam Region,Anakapalle Division,Rebaka B.O,531002,BO,Delivery,VISAKHAPATANAM,ANDHRA PRADESH,17.7070180,83.0125240
Andhra Pradesh Circle,Visakhapatnam Region,Anakapalle Division,Ravada B.O,531020,BO,Delivery,VISAKHAPATANAM,ANDHRA PRADESH,17.5937759,83.0713809
Andhra Pradesh Circle,Visakhapatnam Region,Anakapalle Division,Desapatrunipalem B.O,531021,BO,Delivery,VISAKHAPATANAM,ANDHRA PRADESH,17.6414081,83.1208790
Andhra Pradesh Circle,Visakhapatnam Region,Anakapalle Division,Kalapaka B.O,531021,BO,Delivery,VISAKHAPATANAM,ANDHRA PRADESH,17.5979057,83.1133572
Andhra Pradesh Circle,Visakhapatnam Region,Anakapalle Division,G J Puram B.O,531126,BO,Delivery,VISAKHAPATANAM,ANDHRA PRADESH,17.4221016,82.6256616
Andhra Pradesh Circle,Visakhapatnam Region,Anakapalle Division,Kaligotla B.O,531075,BO,Delivery,VISAKHAPATANAM,ANDHRA PRADESH,17.9043916,82.9662500
Andhra Pradesh Circle,Visakhapatnam Region,Anakapalle Division,MAMIDIPALLI B.O,531075,BO,Delivery,VISAKHAPATANAM,ANDHRA PRADESH,17.9232983,82.9698533
Andhra Pradesh Circle,Visakhapatnam Region,Anakapalle Division,Chinadoddigallu B.O,531081,BO,Delivery,VISAKHAPATANAM,ANDHRA PRADESH,17.4028171,82.6653414
Andhra Pradesh Circle,Visakhapatnam Region,Anakapalle Division,D L Puram B.O,531081,BO,Delivery,VISAKHAPATANAM,ANDHRA PRADESH,17.3945044,82.6663138
Andhra Pradesh Circle,Visakhapatnam Region,Anakapalle Division,Peda Doddigallu B.O,531081,BO,Delivery,VISAKHAPATANAM,ANDHRA PRADESH,17.4360717,82.6886562
Andhra Pradesh Circle,Visakhapatnam Region,Anakapalle Division,Amal College B.O,531002,BO,Non Delivery,VISAKHAPATANAM,ANDHRA PRADESH,17.6850220,82.9810240
Andhra Pradesh Circle,Visakhapatnam Region,Anakapalle Division,Cheepurupalli B.O,531020,BO,Delivery,VISAKHAPATANAM,ANDHRA PRADESH,17.5602730,83.0834200
Andhra Pradesh Circle,Visakhapatnam Region,Anakapalle Division,Dalaipalim B.O,531020,BO,Delivery,VISAKHAPATANAM,ANDHRA PRADESH,17.5736061,83.1043797
Andhra Pradesh Circle,Visakhapatnam Region,Anakapalle Division,Bharnikam B.O,531021,BO,Delivery,VISAKHAPATANAM,ANDHRA PRADESH,17.6312890,83.0599880
Andhra Pradesh Circle,Visakhapatnam Region,Anakapalle Division,Gullipadu B.O,531126,BO,Delivery,VISAKHAPATANAM,ANDHRA PRADESH,17.4193950,82.6397616
Andhra Pradesh Circle,Visakhapatnam Region,Anakapalle Division,Koduru B.O,531002,BO,Delivery,VISAKHAPATANAM,ANDHRA PRADESH,17.7065550,83.0505900
Andhra Pradesh Circle,Visakhapatnam Region,Anakapalle Division,Rebaka B.O,531126,BO,Delivery,VISAKHAPATANAM,ANDHRA PRADESH,17.4438299,82.6594300
Andhra Pradesh Circle,Visakhapatnam Region,Anakapalle Division,Sarvasiddi B.O,531060,BO,Delivery,VISAKHAPATANAM,ANDHRA PRADESH,17.4683566,82.8320266
Andhra Pradesh Circle,Visakhapatnam Region,Anakapalle Division,Vakapadu B.O,531060,BO,Delivery,VISAKHAPATANAM,ANDHRA PRADESH,17.4467833,82.8415283
Andhra Pradesh Circle,Visakhapatnam Region,Anakapalle Division,Venkatapuram B.O,531060,BO,Delivery,VISAKHAPATANAM,ANDHRA PRADESH,17.4354380,82.8271290
Andhra Pradesh Circle,Visakhapatnam Region,Anakapalle Division,Adduru B.O,531035,BO,Delivery,VISAKHAPATANAM,ANDHRA PRADESH,17.8178415,83.0242170
Andhra Pradesh Circle,Visakhapatnam Region,Anakapalle Division,Amruthpuram. B.O,531035,BO,Delivery,VISAKHAPATANAM,ANDHRA PRADESH,17.7839816,83.1438143
Andhra Pradesh Circle,Visakhapatnam Region,Anakapalle Division,Gollalapalem B.O,531035,BO,Delivery,VISAKHAPATANAM,ANDHRA PRADESH,17.7885460,83.1312700
Andhra Pradesh Circle,Visakhapatnam Region,Anakapalle Division,Kundram B.O,531032,BO,Delivery,VISAKHAPATANAM,ANDHRA PRADESH,17.7250452,82.9169259
Andhra Pradesh Circle,Visakhapatnam Region,Anakapalle Division,Mamidipalem B.O,531032,BO,Delivery,VISAKHAPATANAM,ANDHRA PRADESH,17.7621190,82.9856590
Andhra Pradesh Circle,Visakhapatnam Region,Anakapalle Division,T S Nagaram B.O,531032,BO,Delivery,VISAKHAPATANAM,ANDHRA PRADESH,17.7372690,82.9597380
Andhra Pradesh Circle,Visakhapatnam Region,Anakapalle Division,Venkupalem B.O,531032,BO,Delivery,VISAKHAPATANAM,ANDHRA PRADESH,17.7223890,82.9693510
Andhra Pradesh Circle,Visakhapatnam Region,Anakapalle Division,Mettapalem B.O,531032,BO,Delivery,VISAKHAPATANAM,ANDHRA PRADESH,17.7274640,82.9098130
Andhra Pradesh Circle,Visakhapatnam Region,Anakapalle Division,Ganaparthi B.O,531055,BO,Delivery,VISAKHAPATANAM,ANDHRA PRADESH,17.5727110,82.8950210
Andhra Pradesh Circle,Visakhapatnam Region,Anakapalle Division,Jagannadhapuram. B.O,531055,BO,Delivery,VISAKHAPATANAM,ANDHRA PRADESH,17.5913660,82.9314990
Andhra Pradesh Circle,Visakhapatnam Region,Anakapalle Division,Pedaramabhadrapuram B.O,531127,BO,Delivery,VISAKHAPATANAM,ANDHRA PRADESH,17.3347889,82.5657079
Andhra Pradesh Circle,Visakhapatnam Region,Anakapalle Division,Srirampuram B.O,531127,BO,Delivery,VISAKHAPATANAM,ANDHRA PRADESH,17.3142061,82.5720667
Andhra Pradesh Circle,Visakhapatnam Region,Anakapalle Division,Aripaka B.O,531035,BO,Delivery,VISAKHAPATANAM,ANDHRA PRADESH,17.7971889,83.0749258
Andhra Pradesh Circle,Visakhapatnam Region,Anakapalle Division,Janguluru B.O,531055,BO,Delivery,VISAKHAPATANAM,ANDHRA PRADESH,17.4959430,82.8386310
Andhra Pradesh Circle,Visakhapatnam Region,Anakapalle Division,Kokkirapalle B.O,531055,BO,Delivery,VISAKHAPATANAM,ANDHRA PRADESH,17.5688650,82.8367420
Andhra Pradesh Circle,Visakhapatnam Region,Anakapalle Division,Pulaparthi B.O,531055,BO,Delivery,VISAKHAPATANAM,ANDHRA PRADESH,17.4849352,82.7818401
Andhra Pradesh Circle,Visakhapatnam Region,Anakapalle Division,Purushothapuram B.O,531055,BO,Delivery,VISAKHAPATANAM,ANDHRA PRADESH,17.5024910,82.7916810
Andhra Pradesh Circle,Visakhapatnam Region,Anakapalle Division,Bylakinchangi B.O,531111,BO,Delivery,VISAKHAPATANAM,ANDHRA PRADESH,17.8899410,82.3747590
Andhra Pradesh Circle,Visakhapatnam Region,Anakapalle Division,Mondigedda B.O,531111,BO,Delivery,VISAKHAPATANAM,ANDHRA PRADESH,17.9638190,82.3156640
Andhra Pradesh Circle,Visakhapatnam Region,Anakapalle Division,Bonthilli B.O,531029,BO,Delivery,VISAKHAPATANAM,ANDHRA PRADESH,18.0391630,82.4959950
Andhra Pradesh Circle,Visakhapatnam Region,Anakapalle Division,Gaduthuru B.O,531029,BO,Delivery,VISAKHAPATANAM,ANDHRA PRADESH,17.9344525,82.5741143
Andhra Pradesh Circle,Visakhapatnam Region,Anakapalle Division,Killamkota B.O,531029,BO,Delivery,VISAKHAPATANAM,ANDHRA PRADESH,18.0837540,82.3831790
Andhra Pradesh Circle,Visakhapatnam Region,Anakapalle Division,Lingeti B.O,531029,BO,Delivery,VISAKHAPATANAM,ANDHRA PRADESH,18.1677984,82.4746360
Andhra Pradesh Circle,Visakhapatnam Region,Anakapalle Division,Luvvasingi B.O,531029,BO,Delivery,VISAKHAPATANAM,ANDHRA PRADESH,18.0402546,82.4733611
Andhra Pradesh Circle,Visakhapatnam Region,Anakapalle Division,Pedalochali B.O,531029,BO,Delivery,VISAKHAPATANAM,ANDHRA PRADESH,18.2154780,82.4985670
Andhra Pradesh Circle,Visakhapatnam Region,Anakapalle Division,Gomangi B.O,531029,BO,Delivery,VISAKHAPATANAM,ANDHRA PRADESH,18.1903480,82.5550610
Andhra Pradesh Circle,Visakhapatnam Region,Anakapalle Division,Bongaram B.O,531029,BO,Delivery,VISAKHAPATANAM,ANDHRA PRADESH,18.1407320,82.4204940
Andhra Pradesh Circle,Visakhapatnam Region,Anakapalle Division,Beeram B.O,531029,BO,Delivery,VISAKHAPATANAM,ANDHRA PRADESH,18.0785100,82.5097650
Andhra Pradesh Circle,Visakhapatnam Region,Anakapalle Division,Mattam B.O,531077,BO,Delivery,VISAKHAPATANAM,ANDHRA PRADESH,18.1535500,82.6377466
Andhra Pradesh Circle,Visakhapatnam Region,Anakapalle Division,Bangarammapalem B.O,531035,BO,Delivery,VISAKHAPATANAM,ANDHRA PRADESH,17.8140939,83.1218600
Andhra Pradesh Circle,Visakhapatnam Region,Anakapalle Division,Mallunaidupalem B.O,531035,BO,Delivery,VISAKHAPATANAM,ANDHRA PRADESH,17.8250381,83.1501702
Andhra Pradesh Circle,Visakhapatnam Region,Anakapalle Division,Chn Agraharam B.O,531032,BO,Delivery,VISAKHAPATANAM,ANDHRA PRADESH,17.7041020,83.0278440
Andhra Pradesh Circle,Visakhapatnam Region,Anakapalle Division,Papayya Santhapalem B.O,531032,BO,Delivery,VISAKHAPATANAM,ANDHRA PRADESH,17.7425010,83.0016230
Andhra Pradesh Circle,Visakhapatnam Region,Anakapalle Division,Makavaram B.O,531032,BO,Delivery,VISAKHAPATANAM,ANDHRA PRADESH,17.7193470,83.0119660
Andhra Pradesh Circle,Visakhapatnam Region,Anakapalle Division,Bowluwada B.O,531032,BO,Delivery,VISAKHAPATANAM,ANDHRA PRADESH,17.7455930,82.9876858
Andhra Pradesh Circle,Visakhapatnam Region,Anakapalle Division,Narasingabilli B.O,531055,BO,Delivery,VISAKHAPATANAM,ANDHRA PRADESH,17.6060580,82.8795430
Andhra Pradesh Circle,Visakhapatnam Region,Anakapalle Division,Penugollu B.O,531055,BO,Delivery,VISAKHAPATANAM,ANDHRA PRADESH,17.4690249,82.7728801
Andhra Pradesh Circle,Visakhapatnam Region,Anakapalle Division,Somalingapalem B.O,531055,BO,Delivery,VISAKHAPATANAM,ANDHRA PRADESH,17.5723180,82.8646835
Andhra Pradesh Circle,Visakhapatnam Region,Anakapalle Division,Tsuchikonda B.O,531055,BO,Delivery,VISAKHAPATANAM,ANDHRA PRADESH,17.5792570,82.9089260
Andhra Pradesh Circle,Visakhapatnam Region,Anakapalle Division,Annavaram B.O,531111,BO,Delivery,VISAKHAPATANAM,ANDHRA PRADESH,17.9800660,82.4133400
Andhra Pradesh Circle,Visakhapatnam Region,Anakapalle Division,Damanapalli B.O,531111,BO,Delivery,VISAKHAPATANAM,ANDHRA PRADESH,17.8076700,82.4237250
Andhra Pradesh Circle,Visakhapatnam Region,Anakapalle Division,Kommangi B.O,531111,BO,Delivery,VISAKHAPATANAM,ANDHRA PRADESH,17.8161680,82.4399470
Andhra Pradesh Circle,Visakhapatnam Region,Anakapalle Division,Lothugedda B.O,531111,BO,Delivery,VISAKHAPATANAM,ANDHRA PRADESH,18.3107210,83.1488190
Andhra Pradesh Circle,Visakhapatnam Region,Anakapalle Division,Vanchula B.O,531111,BO,Delivery,VISAKHAPATANAM,ANDHRA PRADESH,17.9171930,82.3099990
Andhra Pradesh Circle,Visakhapatnam Region,Anakapalle Division,Yerrabommalu B.O,531111,BO,Delivery,VISAKHAPATANAM,ANDHRA PRADESH,17.8276210,82.4400680
Andhra Pradesh Circle,Visakhapatnam Region,Anakapalle Division,Darlapudi B.O,531082,BO,Non Delivery,VISAKHAPATANAM,ANDHRA PRADESH,17.4763989,82.7333051
Andhra Pradesh Circle,Visakhapatnam Region,Anakapalle Division,Bandaveedhi B.O,531029,BO,Delivery,VISAKHAPATANAM,ANDHRA PRADESH,18.0535777,82.5595071
Andhra Pradesh Circle,Visakhapatnam Region,Anakapalle Division,Kokkirapalle B.O,531029,BO,Delivery,VISAKHAPATANAM,ANDHRA PRADESH,17.9856098,82.4604490
Andhra Pradesh Circle,Visakhapatnam Region,Anakapalle Division,Nurmathi B.O,531029,BO,Delivery,VISAKHAPATANAM,ANDHRA PRADESH,18.0941316,82.4763447
Andhra Pradesh Circle,Visakhapatnam Region,Anakapalle Division,Sulabham B.O,531029,BO,Delivery,VISAKHAPATANAM,ANDHRA PRADESH,17.9731513,82.5835633
Andhra Pradesh Circle,Visakhapatnam Region,Anakapalle Division,Addumanda B.O,531077,BO,Delivery,VISAKHAPATANAM,ANDHRA PRADESH,18.1098200,82.6996833
Andhra Pradesh Circle,Visakhapatnam Region,Anakapalle Division,Gamparai B.O,531077,BO,Delivery,VISAKHAPATANAM,ANDHRA PRADESH,18.1828733,82.6382216
Andhra Pradesh Circle,Visakhapatnam Region,Anakapalle Division,Guttulaputtu B.O,531077,BO,Delivery,VISAKHAPATANAM,ANDHRA PRADESH,18.1255649,82.6454650
Andhra Pradesh Circle,Visakhapatnam Region,Anakapalle Division,Kamayyapeta B.O,531077,BO,Delivery,VISAKHAPATANAM,ANDHRA PRADESH,18.1491766,82.6958283
Andhra Pradesh Circle,Visakhapatnam Region,Anakapalle Division,Konthili B.O,531077,BO,Delivery,VISAKHAPATANAM,ANDHRA PRADESH,18.1502916,82.6968616
Andhra Pradesh Circle,Visakhapatnam Region,Anakapalle Division,P Kothapalle B.O,531117,BO,Delivery,VISAKHAPATANAM,ANDHRA PRADESH,17.5106729,82.5838704
Andhra Pradesh Circle,Visakhapatnam Region,Anakapalle Division,Jilledupudi B.O,531117,BO,Delivery,VISAKHAPATANAM,ANDHRA PRADESH,17.5435502,82.5717812
Andhra Pradesh Circle,Visakhapatnam Region,Anakapalle Division,Pamulavaka B.O,531117,BO,Delivery,VISAKHAPATANAM,ANDHRA PRADESH,17.5725596,82.6021400
Andhra Pradesh Circle,Visakhapatnam Region,Anakapalle Division,Yerakannapalem B.O,531117,BO,Delivery,VISAKHAPATANAM,ANDHRA PRADESH,17.5847788,82.6099425
Andhra Pradesh Circle,Visakhapatnam Region,Anakapalle Division,M Bennavaram B.O,531117,BO,Delivery,VISAKHAPATANAM,ANDHRA PRADESH,17.6094640,82.5735530
Andhra Pradesh Circle,Visakhapatnam Region,Anakapalle Division,Araku Colony S.O,531149,PO,Delivery,VISAKHAPATANAM,ANDHRA PRADESH,18.3332778,82.8666944
Andhra Pradesh Circle,Visakhapatnam Region,Anakapalle Division,Jawaharlalnehru Pharmacity S.O,531019,PO,Delivery,VISAKHAPATANAM,ANDHRA PRADESH,17.6631389,83.0928611
Andhra Pradesh Circle,Visakhapatnam Region,Anakapalle Division,K Kotapadu S.O,531034,PO,Delivery,VISAKHAPATANAM,ANDHRA PRADESH,17.8861111,83.0435000
Andhra Pradesh Circle,Visakhapatnam Region,Anakapalle Division,Nidanam Doddi S.O,531002,PO,Delivery,VISAKHAPATANAM,ANDHRA PRADESH,17.5594444,83.0823056
Andhra Pradesh Circle,Visakhapatnam Region,Anakapalle Division,Paravada S.O,531021,PO,Delivery,VISAKHAPATANAM,ANDHRA PRADESH,17.6251944,83.0797778
Andhra Pradesh Circle,Visakhapatnam Region,Anakapalle Division,Payakaraopeta S.O,531126,PO,Delivery,VISAKHAPATANAM,ANDHRA PRADESH,17.3663611,82.5479167
Andhra Pradesh Circle,Visakhapatnam Region,Anakapalle Division,Yellamanchili S.O,531055,PO,Delivery,VISAKHAPATANAM,ANDHRA PRADESH,17.7041944,83.2965000
Andhra Pradesh Circle,Visakhapatnam Region,Anakapalle Division,G Madugula S.O,531029,PO,Delivery,VISAKHAPATANAM,ANDHRA PRADESH,18.0136389,82.5303889
Andhra Pradesh Circle,Visakhapatnam Region,Anakapalle Division,Kd Peta S.O,531084,PO,Delivery,VISAKHAPATANAM,ANDHRA PRADESH,17.6715000,82.3835833
Andhra Pradesh Circle,Visakhapatnam Region,Anakapalle Division,Kj Puram S.O,531028,PO,Delivery,VISAKHAPATANAM,ANDHRA PRADESH,17.8698611,82.8458889
Andhra Pradesh Circle,Visakhapatnam Region,Anakapalle Division,Nathavaram S.O,531115,PO,Delivery,VISAKHAPATANAM,ANDHRA PRADESH,17.5693611,82.4928611
Andhra Pradesh Circle,Visakhapatnam Region,Anakapalle Division,Vaddadi S.O,531026,PO,Delivery,VISAKHAPATANAM,ANDHRA PRADESH,17.0905833,82.8809444
Andhra Pradesh Circle,Visakhapatnam Region,Anakapalle Division,Atchutapuram S.O,531011,PO,Delivery,VISAKHAPATANAM,ANDHRA PRADESH,17.5607222,82.9791667
Andhra Pradesh Circle,Visakhapatnam Region,Anakapalle Division,Kasimkota S.O,531031,PO,Delivery,VISAKHAPATANAM,ANDHRA PRADESH,17.6654444,82.9645000
Andhra Pradesh Circle,Visakhapatnam Region,Anakapalle Division,S Rayavaram S.O,531060,PO,Delivery,VISAKHAPATANAM,ANDHRA PRADESH,17.4537500,82.8052222
Andhra Pradesh Circle,Visakhapatnam Region,Anakapalle Division,Satyavaram S.O,531127,PO,Delivery,VISAKHAPATANAM,ANDHRA PRADESH,17.3242222,82.5902500
Andhra Pradesh Circle,Visakhapatnam Region,Anakapalle Division,Subbavaram S.O,531035,PO,Delivery,VISAKHAPATANAM,ANDHRA PRADESH,17.7909180,83.1244722
Andhra Pradesh Circle,Visakhapatnam Region,Anakapalle Division,Etikoppaka S.O,531082,PO,Delivery,VISAKHAPATANAM,ANDHRA PRADESH,17.4892222,82.7451389
Andhra Pradesh Circle,Visakhapatnam Region,Anakapalle Division,Koyyuru S.O,531087,PO,Delivery,VISAKHAPATANAM,ANDHRA PRADESH,17.6564167,82.2170278
Andhra Pradesh Circle,Visakhapatnam Region,Anakapalle Division,Madugula S.O,531027,PO,Delivery,VISAKHAPATANAM,ANDHRA PRADESH,17.9152500,82.8141667
Andhra Pradesh Circle,Visakhapatnam Region,Anakapalle Division,Vemulapudi S.O,531117,PO,Delivery,VISAKHAPATANAM,ANDHRA PRADESH,17.6091111,82.6118611
Andhra Pradesh Circle,Visakhapatnam Region,Anakapalle Division,A Koduru S.O,531022,PO,Delivery,VISAKHAPATANAM,ANDHRA PRADESH,17.8131944,82.9633333
Andhra Pradesh Circle,Visakhapatnam Region,Anakapalle Division,Araku Rs S.O,531151,PO,Delivery,VISAKHAPATANAM,ANDHRA PRADESH,18.3332778,82.8666944
Andhra Pradesh Circle,Visakhapatnam Region,Anakapalle Division,Chodavaram S.O,531036,PO,Delivery,VISAKHAPATANAM,ANDHRA PRADESH,17.8285833,82.9382500
Andhra Pradesh Circle,Visakhapatnam Region,Anakapalle Division,Dimili S.O,531061,PO,Delivery,VISAKHAPATANAM,ANDHRA PRADESH,17.5337778,82.8815556
Andhra Pradesh Circle,Visakhapatnam Region,Anakapalle Division,Gandhinagaram S.O (Visakhapatnam),531001,PO,Non Delivery,VISAKHAPATANAM,ANDHRA PRADESH,17.6985640,83.0007970
Andhra Pradesh Circle,Visakhapatnam Region,Anakapalle Division,Govada S.O,531023,PO,Delivery,VISAKHAPATANAM,ANDHRA PRADESH,17.8045278,82.9648889
Andhra Pradesh Circle,Visakhapatnam Region,Anakapalle Division,Lakkavaram S.O (Visakhapatnam),531075,PO,Delivery,VISAKHAPATANAM,ANDHRA PRADESH,17.7041944,83.2965000
Andhra Pradesh Circle,Visakhapatnam Region,Anakapalle Division,Munagapaka S.O,531033,PO,Delivery,VISAKHAPATANAM,ANDHRA PRADESH,17.6371111,82.9936944
Andhra Pradesh Circle,Visakhapatnam Region,Anakapalle Division,Nakkapalle S.O,531081,PO,Delivery,VISAKHAPATANAM,ANDHRA PRADESH,17.4086111,82.7160833
Andhra Pradesh Circle,Visakhapatnam Region,Anakapalle Division,Thummapala S.O,531032,PO,Delivery,VISAKHAPATANAM,ANDHRA PRADESH,17.7183611,82.9966111
Andhra Pradesh Circle,Visakhapatnam Region,Anakapalle Division,Chintapalli S.O,531111,PO,Delivery,VISAKHAPATANAM,ANDHRA PRADESH,17.8703611,82.3505833
Andhra Pradesh Circle,Visakhapatnam Region,Anakapalle Division,Kotauratla S.O,531085,PO,Delivery,VISAKHAPATANAM,ANDHRA PRADESH,17.5663611,82.6865278
Andhra Pradesh Circle,Visakhapatnam Region,Anakapalle Division,Krishna Bazar(Narsipatnam) S.O,531118,PO,Delivery,VISAKHAPATANAM,ANDHRA PRADESH,17.6674167,82.6099444
Andhra Pradesh Circle,Visakhapatnam Region,Anakapalle Division,Gudem S.O,531133,PO,Delivery,VISAKHAPATANAM,ANDHRA PRADESH,17.8758889,82.2335000
Andhra Pradesh Circle,Visakhapatnam Region,Anakapalle Division,Devarapalli S.O (Visakhapatnam),531030,PO,Delivery,VISAKHAPATANAM,ANDHRA PRADESH,17.7041944,83.2965000
Andhra Pradesh Circle,Visakhapatnam Region,Anakapalle Division,Ntpc Simhadri S.O,531020,PO,Delivery,VISAKHAPATANAM,ANDHRA PRADESH,17.5701667,83.0921667
Andhra Pradesh Circle,Visakhapatnam Region,Anakapalle Division,Hukumpeta S.O,531077,PO,Delivery,VISAKHAPATANAM,ANDHRA PRADESH,18.1538333,82.6918889
Andhra Pradesh Circle,Visakhapatnam Region,Anakapalle Division,Kothakota S.O (Visakhapatnam),531114,PO,Delivery,VISAKHAPATANAM,ANDHRA PRADESH,17.7041944,83.2965000
Andhra Pradesh Circle,Visakhapatnam Region,Anakapalle Division,Makavarapalem S.O,531113,PO,Delivery,VISAKHAPATANAM,ANDHRA PRADESH,17.6188333,82.7220556
Andhra Pradesh Circle,Visakhapatnam Region,Anakapalle Division,Paderoo S.O,531024,PO,Delivery,VISAKHAPATANAM,ANDHRA PRADESH,18.0800278,82.6640278
Andhra Pradesh Circle,Visakhapatnam Region,Visakhapatnam Division,Visakhapatnam H.O,530001,HO,Delivery,VISAKHAPATANAM,ANDHRA PRADESH,17.7041944,83.2965000
Andhra Pradesh Circle,Visakhapatnam Region,Visakhapatnam Division,Waltair R S H.O,530004,HO,Delivery,VISAKHAPATANAM,ANDHRA PRADESH,17.7417222,83.3117778
Andhra Pradesh Circle,Visakhapatnam Region,Visakhapatnam Division,Akkayyapalem S.O,530016,PO,Delivery,VISAKHAPATANAM,ANDHRA PRADESH,17.7295278,83.3089444
Andhra Pradesh Circle,Visakhapatnam Region,Visakhapatnam Division,Gandhigram S.O (Visakhapatnam),530005,PO,Delivery,VISAKHAPATANAM,ANDHRA PRADESH,17.7041944,83.2965000
Andhra Pradesh Circle,Visakhapatnam Region,Visakhapatnam Division,Industrial Estate S.O (Visakhapatnam),530007,PO,Delivery,VISAKHAPATANAM,ANDHRA PRADESH,17.7041944,83.2965000
Andhra Pradesh Circle,Visakhapatnam Region,Visakhapatnam Division,Marripalem Vuda Colony S.O,530009,PO,Non Delivery,VISAKHAPATANAM,ANDHRA PRADESH,17.7462180,83.2458950
Andhra Pradesh Circle,Visakhapatnam Region,Visakhapatnam Division,Naval Dock Yard S.O,530014,PO,Non Delivery,VISAKHAPATANAM,ANDHRA PRADESH,17.7011990,83.2623130
Andhra Pradesh Circle,Visakhapatnam Region,Visakhapatnam Division,R P Agraharam S.O,531219,PO,Delivery,VISAKHAPATANAM,ANDHRA PRADESH,17.5387778,82.4712222
Andhra Pradesh Circle,Visakhapatnam Region,Visakhapatnam Division,Sujatha Nagar S.O,530051,PO,Delivery,VISAKHAPATANAM,ANDHRA PRADESH,17.7974722,83.2149722
Andhra Pradesh Circle,Visakhapatnam Region,Visakhapatnam Division,Zinc Smelter P S.O,530015,PO,Delivery,VISAKHAPATANAM,ANDHRA PRADESH,17.6900556,83.2253889
Andhra Pradesh Circle,Visakhapatnam Region,Visakhapatnam Division,Autonagar S.O (Visakhapatnam Region),530012,PO,Non Delivery,VISAKHAPATANAM,ANDHRA PRADESH,17.6961130,83.1890150
Andhra Pradesh Circle,Visakhapatnam Region,Visakhapatnam Division,N A D S.O,530009,PO,Delivery,VISAKHAPATANAM,ANDHRA PRADESH,17.7346389,83.2376667
Andhra Pradesh Circle,Visakhapatnam Region,Visakhapatnam Division,Pendurthy S.O,531173,PO,Delivery,VISAKHAPATANAM,ANDHRA PRADESH,17.8210833,83.2026667
Andhra Pradesh Circle,Visakhapatnam Region,Visakhapatnam Division,R R V Puram S.O,530029,PO,Delivery,VISAKHAPATANAM,ANDHRA PRADESH,17.7583056,83.2167778
Andhra Pradesh Circle,Visakhapatnam Region,Visakhapatnam Division,Special Economic Zone P.O,530049,PO,Delivery,VISAKHAPATANAM,ANDHRA PRADESH,17.7124444,83.1490278
Andhra Pradesh Circle,Visakhapatnam Region,Visakhapatnam Division,Ukkunagaram S.O,530032,PO,Delivery,VISAKHAPATANAM,ANDHRA PRADESH,17.6572500,83.1493611
Andhra Pradesh Circle,Visakhapatnam Region,Visakhapatnam Division,VM Steel Projrct Town Ship S.O,530032,PO,Non Delivery,VISAKHAPATANAM,ANDHRA PRADESH,17.6501870,83.1380950
Andhra Pradesh Circle,Visakhapatnam Region,Visakhapatnam Division,Aganampudi S.O,530053,PO,Delivery,VISAKHAPATANAM,ANDHRA PRADESH,17.7417222,83.3117778
Andhra Pradesh Circle,Visakhapatnam Region,Anakapalle Division,Pedabayalu S.O,531040,PO,Delivery,VISAKHAPATANAM,ANDHRA PRADESH,18.2964430,82.5878333
Andhra Pradesh Circle,Visakhapatnam Region,Anakapalle Division,Pedagummuluru S.O,531083,PO,Delivery,VISAKHAPATANAM,ANDHRA PRADESH,17.4338056,82.7421667
Andhra Pradesh Circle,Visakhapatnam Region,Anakapalle Division,Ravikamatham S.O,531025,PO,Delivery,VISAKHAPATANAM,ANDHRA PRADESH,17.7943611,82.8021667
Andhra Pradesh Circle,Visakhapatnam Region,Anakapalle Division,Sileru Project S.O,531105,PO,Delivery,VISAKHAPATANAM,ANDHRA PRADESH,18.0370833,82.0191944
Andhra Pradesh Circle,Visakhapatnam Region,Anakapalle Division,Anakapalle H.O,531001,HO,Delivery,VISAKHAPATANAM,ANDHRA PRADESH,17.6913056,83.0026944
Andhra Pradesh Circle,Visakhapatnam Region,Anakapalle Division,Narsipatnam H.O,531116,HO,Delivery,VISAKHAPATANAM,ANDHRA PRADESH,17.5731180,82.4914120
Andhra Pradesh Circle,Visakhapatnam Region,Visakhapatnam Division,Anandapuram S.O (Visakhapatnam),530052,PO,Delivery,VISAKHAPATANAM,ANDHRA PRADESH,17.7041944,83.2965000
Andhra Pradesh Circle,Visakhapatnam Region,Visakhapatnam Division,Chittivalasa S.O,531162,PO,Delivery,VISAKHAPATANAM,ANDHRA PRADESH,17.9310556,83.4279722
Andhra Pradesh Circle,Visakhapatnam Region,Visakhapatnam Division,Gajuwaka S.O,530026,PO,Delivery,VISAKHAPATANAM,ANDHRA PRADESH,17.6907222,83.2038056
Andhra Pradesh Circle,Visakhapatnam Region,Visakhapatnam Division,Gnanapuram S.O,530004,PO,Non Delivery,VISAKHAPATANAM,ANDHRA PRADESH,17.7207520,83.2847150
Andhra Pradesh Circle,Visakhapatnam Region,Visakhapatnam Division,IRSD Area S.O,530008,PO,Non Delivery,VISAKHAPATANAM,ANDHRA PRADESH,17.7266880,83.2663660
Andhra Pradesh Circle,Visakhapatnam Region,Visakhapatnam Division,Kancharapalem S.O,530008,PO,Delivery,VISAKHAPATANAM,ANDHRA PRADESH,17.7344722,83.2788889
Andhra Pradesh Circle,Visakhapatnam Region,Visakhapatnam Division,Malkapuram S.O,530011,PO,Delivery,VISAKHAPATANAM,ANDHRA PRADESH,17.6889722,83.2423333
Andhra Pradesh Circle,Visakhapatnam Region,Visakhapatnam Division,Muralinagar S.O,530007,PO,Non Delivery,VISAKHAPATANAM,ANDHRA PRADESH,17.7472400,83.2626430
Andhra Pradesh Circle,Visakhapatnam Region,Visakhapatnam Division,Naval Base S.O,530014,PO,Delivery,VISAKHAPATANAM,ANDHRA PRADESH,17.6913390,83.3901667
Andhra Pradesh Circle,Visakhapatnam Region,Visakhapatnam Division,Pedagantyada S.O,530044,PO,Delivery,VISAKHAPATANAM,ANDHRA PRADESH,17.6715833,83.2026111
Andhra Pradesh Circle,Visakhapatnam Region,Visakhapatnam Division,Ratnagiri Colony S.O,530048,PO,Non Delivery,VISAKHAPATANAM,ANDHRA PRADESH,17.80153,83.349208
Andhra Pradesh Circle,Visakhapatnam Region,Visakhapatnam Division,B H P V S.O,530012,PO,Delivery,VISAKHAPATANAM,ANDHRA PRADESH,17.7028611,83.2021667
Andhra Pradesh Circle,Visakhapatnam Region,Visakhapatnam Division,Bheemunipatnam S.O,531163,PO,Delivery,VISAKHAPATANAM,ANDHRA PRADESH,17.8901944,83.4528333
Andhra Pradesh Circle,Visakhapatnam Region,Visakhapatnam Division,Gopalapatnam S.O,530027,PO,Delivery,VISAKHAPATANAM,ANDHRA PRADESH,17.7457500,83.2231111
Andhra Pradesh Circle,Visakhapatnam Region,Visakhapatnam Division,Marripalem S.O,530018,PO,Delivery,VISAKHAPATANAM,ANDHRA PRADESH,17.7393056,83.2515556
Andhra Pradesh Circle,Visakhapatnam Region,Visakhapatnam Division,Nausenabagh S.O,530005,PO,Non Delivery,VISAKHAPATANAM,ANDHRA PRADESH,17.6827680,83.2520820
Andhra Pradesh Circle,Visakhapatnam Region,Visakhapatnam Division,Simhachalam S.O,530028,PO,Delivery,VISAKHAPATANAM,ANDHRA PRADESH,17.7741944,83.2460278
Andhra Pradesh Circle,Visakhapatnam Region,Visakhapatnam Division,Vadlapudi S.O,530046,PO,Delivery,VISAKHAPATANAM,ANDHRA PRADESH,17.6878611,83.1705833
Andhra Pradesh Circle,Visakhapatnam Region,Visakhapatnam Division,Vepagunta S.O (Visakhapatnam),530047,PO,Delivery,VISAKHAPATANAM,ANDHRA PRADESH,17.7041944,83.2965000
Andhra Pradesh Circle,Visakhapatnam Region,Visakhapatnam Division,Visakhapatnam Steel Project S.O,530031,PO,Delivery,VISAKHAPATANAM,ANDHRA PRADESH,17.7041944,83.2965000
Andhra Pradesh Circle,Visakhapatnam Region,Visakhapatnam Division,Andhra University S.O,530003,PO,Delivery,VISAKHAPATANAM,ANDHRA PRADESH,17.7248889,83.3240833
Andhra Pradesh Circle,Visakhapatnam Region,Visakhapatnam Division,Dabagardens S.O,530020,PO,Delivery,VISAKHAPATANAM,ANDHRA PRADESH,17.7189722,83.3026944
Andhra Pradesh Circle,Visakhapatnam Region,Visakhapatnam Division,Govt Dairy Farm S.O,530040,PO,Delivery,VISAKHAPATANAM,ANDHRA PRADESH,17.7613611,83.2880556
Andhra Pradesh Circle,Visakhapatnam Region,Visakhapatnam Division,Kurupam Market S.O,530001,PO,Non Delivery,VISAKHAPATANAM,ANDHRA PRADESH,17.6982630,83.2947870
Andhra Pradesh Circle,Visakhapatnam Region,Visakhapatnam Division,LIC Building S.O,530004,PO,Non Delivery,VISAKHAPATANAM,ANDHRA PRADESH,17.7225500,83.3037300
Andhra Pradesh Circle,Visakhapatnam Region,Visakhapatnam Division,M.V.P.Colony S.O,530017,PO,Non Delivery,VISAKHAPATANAM,ANDHRA PRADESH,17.7400556,83.3382222
Andhra Pradesh Circle,Visakhapatnam Region,Visakhapatnam Division,Madhurawada S.O,530048,PO,Delivery,VISAKHAPATANAM,ANDHRA PRADESH,17.8175000,83.3551389
Andhra Pradesh Circle,Visakhapatnam Region,Visakhapatnam Division,Turners Choultry S.O,530002,PO,Non Delivery,VISAKHAPATANAM,ANDHRA PRADESH,17.7093600,83.3009200
Andhra Pradesh Circle,Visakhapatnam Region,Visakhapatnam Division,Visalakshinagar S.O,530043,PO,Delivery,VISAKHAPATANAM,ANDHRA PRADESH,17.7534722,83.3483611
Andhra Pradesh Circle,Visakhapatnam Region,Visakhapatnam Division,D.C. Buildings S.O,530002,PO,Non Delivery,VISAKHAPATANAM,ANDHRA PRADESH,17.7156111,83.3050833
Andhra Pradesh Circle,Visakhapatnam Region,Visakhapatnam Division,Gitam Engg. College S.O,530045,PO,Delivery,VISAKHAPATANAM,ANDHRA PRADESH,17.7832222,83.3804722
Andhra Pradesh Circle,Visakhapatnam Region,Visakhapatnam Division,H B Colony S.O,530022,PO,Delivery,VISAKHAPATANAM,ANDHRA PRADESH,17.7449167,83.3228611
Andhra Pradesh Circle,Visakhapatnam Region,Visakhapatnam Division,KGH S.O,530002,PO,Non Delivery,VISAKHAPATANAM,ANDHRA PRADESH,17.7087370,83.3060380
Andhra Pradesh Circle,Visakhapatnam Region,Visakhapatnam Division,L B Colony S.O,530017,PO,Delivery,VISAKHAPATANAM,ANDHRA PRADESH,17.7335556,83.3389444
Andhra Pradesh Circle,Visakhapatnam Region,Visakhapatnam Division,P and T Colony (VM) S.O,530013,PO,Delivery,VISAKHAPATANAM,ANDHRA PRADESH,17.7041944,83.2965000
Andhra Pradesh Circle,Visakhapatnam Region,Visakhapatnam Division,Pithapuram Colony S.O,530003,PO,Non Delivery,VISAKHAPATANAM,ANDHRA PRADESH,17.7357250,83.3225710
Andhra Pradesh Circle,Visakhapatnam Region,Visakhapatnam Division,Pothinamallayapalem S.O,530041,PO,Delivery,VISAKHAPATANAM,ANDHRA PRADESH,17.8031667,83.3540833
Andhra Pradesh Circle,Visakhapatnam Region,Visakhapatnam Division,Salagramapuram S.O,530024,PO,Delivery,VISAKHAPATANAM,ANDHRA PRADESH,17.7425556,83.2939444
Andhra Pradesh Circle,Visakhapatnam Region,Visakhapatnam Division,Visakhapatnam Airport S.O,530009,PO,Non Delivery,VISAKHAPATANAM,ANDHRA PRADESH,17.7281910,83.2235260
Andhra Pradesh Circle,Visakhapatnam Region,Visakhapatnam Division,Chinawaltair S.O,530003,PO,Non Delivery,VISAKHAPATANAM,ANDHRA PRADESH,17.7257640,83.3361330
Andhra Pradesh Circle,Visakhapatnam Region,Visakhapatnam Division,Dwarakanagar S.O,530016,PO,Non Delivery,VISAKHAPATANAM,ANDHRA PRADESH,17.7270278,83.3031944
Andhra Pradesh Circle,Visakhapatnam Region,Visakhapatnam Division,Fortward S.O,530001,PO,Non Delivery,VISAKHAPATANAM,ANDHRA PRADESH,17.6935810,83.2920120
Andhra Pradesh Circle,Visakhapatnam Region,Visakhapatnam Division,Isakathota S.O,530022,PO,Non Delivery,VISAKHAPATANAM,ANDHRA PRADESH,17.7412620,83.3248270
Andhra Pradesh Circle,Visakhapatnam Region,Visakhapatnam Division,Maharanipeta S.O,530002,PO,Delivery,VISAKHAPATANAM,ANDHRA PRADESH,17.7095556,83.3075278
Andhra Pradesh Circle,Visakhapatnam Region,Visakhapatnam Division,VM Bus Station S.O,530020,PO,Non Delivery,VISAKHAPATANAM,ANDHRA PRADESH,17.7240000,83.3066667
Andhra Pradesh Circle,Visakhapatnam Region,Visakhapatnam Division,Ghandhi Place S.O,530003,PO,Non Delivery,VISAKHAPATANAM,ANDHRA PRADESH,17.7203720,83.3168070
Andhra Pradesh Circle,Visakhapatnam Region,Visakhapatnam Division,New Colony S.O,530016,PO,Non Delivery,VISAKHAPATANAM,ANDHRA PRADESH,16.5780278,81.9935556
Andhra Pradesh Circle,Visakhapatnam Region,Visakhapatnam Division,Vidya Bhavan S.O,530003,PO,Non Delivery,VISAKHAPATANAM,ANDHRA PRADESH,17.7219060,83.3286020